{"type": "FeatureCollection", "features": [{"type": "Feature", "geometry": {"type": "Polygon", "coordinates": [[[-122.777320205745, 49.1590558388039], [-122.777346262136, 49.1590556794551], [-122.777335872785, 49.1576699231436], [-122.7770703572, 49.1576683449047], [-122.776776162349, 49.1576665945786], [-122.776661295398, 49.157663538028], [-122.776656108897, 49.1576633993628], [-122.776648623983, 49.1576632004803], [-122.776521657314, 49.1576546790817], [-122.776395811384, 49.1576409432928], [-122.77585866981, 49.1575601147048], [-122.77461766063, 49.1573578245287], [-122.773322442214, 49.1573462075272], [-122.773325588188, 49.1572576092034], [-122.773336974549, 49.1564583919225], [-122.773338892451, 49.1563239147252], [-122.773346341542, 49.1558067946973], [-122.773270999674, 49.155663398013], [-122.77321373554, 49.1556221523731], [-122.773149744623, 49.1555760593708], [-122.773154333989, 49.1555723631882], [-122.773383980371, 49.1553874102479], [-122.77342108318, 49.1553575284286], [-122.773528863322, 49.1552707248167], [-122.774676320653, 49.1557093571966], [-122.774675791622, 49.1555704944351], [-122.774675214709, 49.1554192089522], [-122.774675078848, 49.1553832469429], [-122.774673467875, 49.1551959761031], [-122.774671464393, 49.1549631113867], [-122.774668873066, 49.154661805929], [-122.774668851731, 49.154588199353], [-122.774671636605, 49.154588618575], [-122.775346416531, 49.1546901374263], [-122.775355956604, 49.1546934105164], [-122.775443435014, 49.1547236117575], [-122.775504547741, 49.1547361397183], [-122.775547981063, 49.1547450441251], [-122.775649289185, 49.1547531200571], [-122.775652047546, 49.154753340406], [-122.775656699199, 49.1547537110578], [-122.775830518848, 49.1547535331924], [-122.776020827514, 49.1547533366757], [-122.776695604383, 49.154750774634], [-122.777129144675, 49.1547491267872], [-122.77735998818, 49.1547482479806], [-122.777368942523, 49.1547482139712], [-122.777368923428, 49.1547347253556], [-122.778717908152, 49.1547321765515], [-122.778853553746, 49.1547316214295], [-122.778851063975, 49.1537169516294], [-122.778852741705, 49.1536481410405], [-122.780395441311, 49.1536511617078], [-122.781696271588, 49.1536536921629], [-122.78170370044, 49.1545344740301], [-122.781711790125, 49.1554774618822], [-122.781597550255, 49.1554769760075], [-122.781596662711, 49.1554773341442], [-122.781596664218, 49.1554769914229], [-122.781587068223, 49.155476951684], [-122.780770898395, 49.1554736068706], [-122.780667099719, 49.1555889410584], [-122.780663485991, 49.1555929560299], [-122.780468062585, 49.1558100957142], [-122.780421189765, 49.1558621771114], [-122.780051259469, 49.1562728327948], [-122.779887792911, 49.1564544978844], [-122.779890120452, 49.1564554009596], [-122.780591790701, 49.156727609727], [-122.780672590227, 49.1567589529072], [-122.781544871593, 49.156755747989], [-122.782401659121, 49.1567525054873], [-122.783345158804, 49.1571180500388], [-122.783446225066, 49.157157205804], [-122.783465895041, 49.1571648257956], [-122.783129284218, 49.1575332475454], [-122.782354698033, 49.1584126257985], [-122.782297565745, 49.158477486321], [-122.782268179393, 49.158510846946], [-122.782242843998, 49.1585731209499], [-122.782213515429, 49.15864520857], [-122.782167274894, 49.1587555791917], [-122.782160241976, 49.1587723665913], [-122.782159609934, 49.1587738739238], [-122.782129322961, 49.1588251965818], [-122.78209667162, 49.1588805222104], [-122.782067217051, 49.1589443499965], [-122.782035210345, 49.1590137069132], [-122.782035174346, 49.1590137842054], [-122.782035124304, 49.1590142482725], [-122.782027180039, 49.1590871048273], [-122.78202710143, 49.1590878279073], [-122.7820172535, 49.1591781633822], [-122.782017819079, 49.1592068039309], [-122.780447101519, 49.159199987191], [-122.78045435961, 49.1602398628853], [-122.780454365978, 49.1602409045619], [-122.778863147829, 49.160238945987], [-122.778864131231, 49.1604019206851], [-122.778703484425, 49.1604029109689], [-122.777378205671, 49.1604110708192], [-122.777323338541, 49.1604114147988], [-122.777323570936, 49.1599600281898], [-122.777321612836, 49.1595077377837], [-122.777320486206, 49.1591459424427], [-122.777320205745, 49.1590558388039]]]}, "properties": {"LAND_USE": "Town Centre", "OVERLAY_TYPE": "Density", "DESCRIPTION": "2.5 FAR", "AREA_NAME": "Fleetwood Town Centre"}}, {"type": "Feature", "geometry": {"type": "Polygon", "coordinates": [[[-122.777320205745, 49.1590558388039], [-122.777320486206, 49.1591459424427], [-122.777321612836, 49.1595077377837], [-122.777323570936, 49.1599600281898], [-122.777323338541, 49.1604114147988], [-122.777378205671, 49.1604110708192], [-122.778703484425, 49.1604029109689], [-122.778864131231, 49.1604019206851], [-122.778863147829, 49.160238945987], [-122.780454365978, 49.1602409045619], [-122.780454908432, 49.1603394274417], [-122.780455351619, 49.1604126218533], [-122.780455588826, 49.160476871771], [-122.780456057529, 49.1605852534374], [-122.780457241703, 49.1609233720309], [-122.780457274831, 49.1609323233908], [-122.780409745354, 49.1609320378189], [-122.78040878759, 49.1609321223532], [-122.780406593037, 49.1609321136823], [-122.778997239627, 49.1609235681276], [-122.778867275292, 49.1609227876979], [-122.778867087675, 49.1608916066719], [-122.778866857661, 49.1608536205637], [-122.778825908316, 49.1608538614757], [-122.778705183597, 49.1608545720022], [-122.778687214757, 49.1608547174735], [-122.776154302466, 49.1608698113506], [-122.776050739811, 49.1608704201366], [-122.776045995259, 49.1608704478162], [-122.776021283527, 49.160870594188], [-122.776028846179, 49.1604196185255], [-122.77603184623, 49.159968151826], [-122.77603785808, 49.1590634804362], [-122.776062157434, 49.1590633359602], [-122.777059831296, 49.1590573882565], [-122.777320205745, 49.1590558388039]]]}, "properties": {"LAND_USE": "Town Centre", "OVERLAY_TYPE": "Density", "DESCRIPTION": "1.5 FAR", "AREA_NAME": "Fleetwood Town Centre"}}]}