{"type": "FeatureCollection", "features": [{"type": "Feature", "geometry": {"type": "Polygon", "coordinates": [[[-122.823092605346, 49.1937871734493], [-122.823090579507, 49.1939773026149], [-122.817571689215, 49.1939390714327], [-122.816327658913, 49.1939317979278], [-122.812455266218, 49.1939142478943], [-122.812448366963, 49.193087833867], [-122.812466576239, 49.1915010840092], [-122.812469885939, 49.1911341710066], [-122.812463805074, 49.1909278092838], [-122.812377912021, 49.1907411975937], [-122.812280520206, 49.1905828124663], [-122.812189131933, 49.1904338821069], [-122.8121247935, 49.1903179185691], [-122.81206887347, 49.1901897341487], [-122.812030894889, 49.1900714746581], [-122.812003388411, 49.1899422570012], [-122.811991185556, 49.1898305160814], [-122.811989061542, 49.1897394799177], [-122.812004516635, 49.1886418907029], [-122.81200461131, 49.1886350139284], [-122.812187307717, 49.188634546567], [-122.812617824931, 49.1886334458973], [-122.812868560493, 49.1886328620457], [-122.813119432954, 49.188632366925], [-122.813370304374, 49.1886317822039], [-122.813621175789, 49.1886311969379], [-122.813871910997, 49.1886307008608], [-122.814248347307, 49.1886297687082], [-122.814283341877, 49.188629734133], [-122.814791435741, 49.1886290145432], [-122.817579841066, 49.1886340389512], [-122.817560792972, 49.1895621323467], [-122.818893119117, 49.189559623657], [-122.818976835295, 49.1895594841434], [-122.820355707897, 49.1895486523817], [-122.821615523237, 49.189671830599], [-122.823111074903, 49.1896942560928], [-122.823109531771, 49.1892012855548], [-122.823277504945, 49.1892010182736], [-122.823797915308, 49.1892001906501], [-122.824500129301, 49.1891992547856], [-122.82453328092, 49.1891228286879], [-122.824534724126, 49.1890015172032], [-122.824691682616, 49.1890010107452], [-122.825224398891, 49.1889992904435], [-122.825756512644, 49.1889975703738], [-122.825895234521, 49.18899712202], [-122.825890508851, 49.1896418009449], [-122.827170447097, 49.1896342917885], [-122.828644027866, 49.1896268787058], [-122.828642065005, 49.1900744148208], [-122.828640619821, 49.1900744207724], [-122.828637218488, 49.1905211910151], [-122.831396659175, 49.1905083698991], [-122.834154064256, 49.1904939579225], [-122.834148134165, 49.1914796551296], [-122.834144825253, 49.1923659981135], [-122.8341398088, 49.1937100707308], [-122.834001470019, 49.1937098387018], [-122.832764155154, 49.1937077712741], [-122.832763830185, 49.1937634554265], [-122.832247626528, 49.1937644141327], [-122.831971631209, 49.1937597842346], [-122.831413843593, 49.1937596901234], [-122.831372120365, 49.1937596292138], [-122.831372209959, 49.1937332712605], [-122.829977166129, 49.1937397733851], [-122.829320141193, 49.1937396183822], [-122.828579258419, 49.1937392443568], [-122.827228030513, 49.1937386639014], [-122.827227657004, 49.1937670912506], [-122.824160545994, 49.1937820263184], [-122.823259928787, 49.1937864041534], [-122.823230693475, 49.1937865384187], [-122.823092605346, 49.1937871734493]]]}, "properties": {"BOUNDARY_TYPE": "Frequent Transit Development Area", "NAME": "104 Ave"}}, {"type": "Feature", "geometry": {"type": "Polygon", "coordinates": [[[-122.795817975809, 49.1646104037759], [-122.795822287269, 49.1644298752739], [-122.795415455338, 49.1644269072955], [-122.795417262334, 49.1643951667439], [-122.795415860492, 49.1643951543655], [-122.795064309703, 49.1643920132128], [-122.794926722366, 49.1643933890253], [-122.794926957014, 49.1643368985325], [-122.794941422709, 49.164255606095], [-122.794946166223, 49.1642439457268], [-122.794791001483, 49.1642428362277], [-122.794020959474, 49.164237329201], [-122.794033651209, 49.1636262982545], [-122.794038625046, 49.1633874809735], [-122.794039663678, 49.1633354895908], [-122.794047488112, 49.1629441159075], [-122.794267866307, 49.1628833402212], [-122.794516993417, 49.1628423142351], [-122.794801809313, 49.1628272586999], [-122.794889044896, 49.1628275926882], [-122.796182902137, 49.1628332082724], [-122.798176333443, 49.1628417657532], [-122.799721997572, 49.1628483895864], [-122.801522149703, 49.1628560879754], [-122.801463399345, 49.1646664217708], [-122.801630657051, 49.164665872638], [-122.801648626854, 49.1646658135514], [-122.802823652095, 49.1646642312994], [-122.802822866944, 49.1646892379776], [-122.80281301393, 49.1649921850937], [-122.802803161806, 49.1652952221481], [-122.80280237628, 49.1653203178769], [-122.802927342433, 49.1653201722922], [-122.803323774336, 49.1653197705037], [-122.803715954576, 49.1653191811198], [-122.804036666901, 49.1653186472563], [-122.804173682733, 49.1653184209215], [-122.80414138135, 49.1665505637752], [-122.804124233922, 49.1671592041392], [-122.804716166876, 49.1673881635261], [-122.804712977114, 49.1674925403148], [-122.804711401237, 49.1675440810744], [-122.80470420169, 49.1677691328525], [-122.804701555856, 49.1678485574209], [-122.8046902858, 49.1682006177004], [-122.804687001337, 49.1683032339213], [-122.801345573697, 49.1682908803529], [-122.799658290957, 49.1682870704647], [-122.79912668162, 49.1682858654258], [-122.799111139631, 49.1681948053332], [-122.799065998062, 49.1680281309013], [-122.798980097093, 49.1678659740374], [-122.798841634268, 49.1677093026826], [-122.798634253886, 49.1675662730097], [-122.798394602625, 49.1674649260088], [-122.798037857948, 49.1673498807403], [-122.797782331791, 49.1672397782978], [-122.797566232499, 49.167082788612], [-122.797427435334, 49.1669084849381], [-122.797355676601, 49.1667109989586], [-122.797357863744, 49.1665122061505], [-122.797440644577, 49.1657270272495], [-122.797289210994, 49.1657254437035], [-122.795791213968, 49.1657097665437], [-122.795793360851, 49.1656213458957], [-122.79579748576, 49.1654528708868], [-122.79580161064, 49.1652843958728], [-122.795805599692, 49.1651159197141], [-122.795809724512, 49.1649474446898], [-122.795813849676, 49.1647788788079], [-122.795817975809, 49.1646104037759]]]}, "properties": {"BOUNDARY_TYPE": "Frequent Transit Development Area", "NAME": "Fleetwood West"}}, {"type": "Feature", "geometry": {"type": "Polygon", "coordinates": [[[-122.698435265226, 49.1250540086873], [-122.698267367737, 49.1250579561975], [-122.696238041764, 49.1251056521859], [-122.695782693714, 49.1251133650471], [-122.695604054323, 49.1251163898312], [-122.695117455825, 49.1249906036161], [-122.695094573799, 49.1249846880576], [-122.694282911964, 49.1245701826273], [-122.693794541095, 49.1242866717678], [-122.693388878412, 49.124079556394], [-122.693074610477, 49.1239191017624], [-122.692889387711, 49.1238245330899], [-122.693379857325, 49.1234217263902], [-122.693684069592, 49.1231718840132], [-122.693855309266, 49.1230323664291], [-122.693892362508, 49.1230061341164], [-122.693894039616, 49.122812481075], [-122.693895400305, 49.1227109855023], [-122.693896993787, 49.1225228986096], [-122.693897371424, 49.1224141105179], [-122.693897392917, 49.122408614359], [-122.693787749591, 49.1223594234776], [-122.693216755024, 49.1221034544177], [-122.693205909702, 49.1220985923468], [-122.693085818789, 49.1220447196891], [-122.692481150493, 49.1217734380581], [-122.692377712253, 49.1217270311559], [-122.691387820408, 49.1212829189971], [-122.691279731853, 49.1212344306223], [-122.691066522593, 49.1211387721453], [-122.690929636719, 49.1210773572852], [-122.690935784954, 49.1203470892183], [-122.690919693157, 49.1202457574051], [-122.690888349091, 49.1201290025373], [-122.690833610765, 49.1200274772747], [-122.690764239702, 49.119943184051], [-122.69068890346, 49.1198702990216], [-122.690587404704, 49.1197954547848], [-122.690474291787, 49.1197148222338], [-122.69037574331, 49.1196284715445], [-122.690315166641, 49.11954042534], [-122.690277634054, 49.1194714195223], [-122.690238493179, 49.119378339355], [-122.690262347142, 49.1193753422027], [-122.690442445163, 49.1193447639526], [-122.690532948623, 49.1193238223008], [-122.690659904434, 49.1192875807447], [-122.690738831573, 49.1192606475289], [-122.690822747546, 49.1192279165594], [-122.69090018017, 49.1191935687801], [-122.691324714773, 49.1189934809193], [-122.691324824732, 49.1189934290396], [-122.691368641903, 49.11897277749], [-122.691388070226, 49.1189636198846], [-122.691412797166, 49.1189519658087], [-122.691529153822, 49.1188971256588], [-122.691628946413, 49.1188500914783], [-122.691734765672, 49.118801356072], [-122.691824021636, 49.1187658500418], [-122.691857489349, 49.118754828194], [-122.691945697862, 49.1187257798058], [-122.692074755302, 49.1186925503777], [-122.692188637635, 49.1186703753343], [-122.692319457783, 49.1186525559391], [-122.692438346997, 49.118643104563], [-122.692584179766, 49.1186400081328], [-122.692717134754, 49.1186452771944], [-122.692850758924, 49.1186584755728], [-122.692974625778, 49.1186780714991], [-122.69309681795, 49.118704788136], [-122.693905008555, 49.1189070608723], [-122.693951848913, 49.118918527412], [-122.694072538403, 49.1189457544701], [-122.694217684591, 49.1189742146889], [-122.694322046368, 49.1189916750587], [-122.694341021484, 49.1189948512156], [-122.694462970175, 49.1190121448261], [-122.694571082881, 49.1190249507571], [-122.694656823211, 49.1190334470693], [-122.694741883435, 49.1190404428779], [-122.694845861077, 49.1190470757358], [-122.6949614667, 49.1190519941063], [-122.695069457823, 49.1190542646793], [-122.69519633259, 49.1190540779762], [-122.695381578545, 49.1190513798096], [-122.696346713943, 49.119037698998], [-122.696394981802, 49.11903701455], [-122.696929743987, 49.1190305359788], [-122.696920862755, 49.1191370223703], [-122.696918318243, 49.1191675372461], [-122.696918279783, 49.1191680013103], [-122.696890658751, 49.1194993660742], [-122.696888191133, 49.1195289510201], [-122.69688607403, 49.1195543162221], [-122.696852365707, 49.1199586198469], [-122.69684393469, 49.1200597650018], [-122.696836354323, 49.1201506314921], [-122.696833954521, 49.1201794223137], [-122.697654820454, 49.1203575375391], [-122.697653950493, 49.1204611969829], [-122.697651767517, 49.1207215572497], [-122.697645191476, 49.1215528351864], [-122.697644021723, 49.1217010653497], [-122.697643833079, 49.1217228527208], [-122.697642210833, 49.1219116961236], [-122.697864988703, 49.1220118732923], [-122.698243723203, 49.1221830683857], [-122.698737468172, 49.1224055692545], [-122.699046897324, 49.122543796042], [-122.699228046247, 49.1226253206379], [-122.699502750761, 49.1227508297262], [-122.700596263254, 49.1232410572223], [-122.701735075884, 49.1237206022119], [-122.701735696506, 49.1237208736784], [-122.701735620337, 49.1237210048151], [-122.701673178045, 49.1238840378639], [-122.701610502939, 49.1240855761531], [-122.701615144674, 49.1242432809078], [-122.701651280051, 49.1244161200141], [-122.70171832357, 49.1245644328362], [-122.701716871971, 49.1249734885713], [-122.701579871198, 49.1249766130777], [-122.701572740206, 49.1249767763536], [-122.701321188526, 49.1249825045346], [-122.701113345283, 49.1249872379888], [-122.700908508205, 49.1249919023953], [-122.700506784685, 49.1250010483451], [-122.700369861928, 49.1250041653213], [-122.700329495897, 49.1250354897186], [-122.700133250881, 49.1250365417931], [-122.700132864256, 49.1250365596793], [-122.699960968623, 49.1250448584575], [-122.699831343961, 49.1250444018823], [-122.699793655155, 49.1250442688076], [-122.699658493365, 49.1250421874569], [-122.699603306182, 49.1250388010254], [-122.6995289414, 49.1250342375309], [-122.699412095886, 49.1250318464395], [-122.699360901292, 49.1250330084856], [-122.699260942557, 49.1250352776716], [-122.698435265226, 49.1250540086873]]]}, "properties": {"BOUNDARY_TYPE": "Frequent Transit Development Area", "NAME": "East Clayton"}}]}