{"type": "FeatureCollection", "features": [{"type": "Feature", "geometry": {"type": "Polygon", "coordinates": [[[-122.680786657143, 49.0331420482496], [-122.682880846229, 49.0331358372467], [-122.682875718598, 49.0331319433861], [-122.682870793295, 49.0331279382006], [-122.682866075906, 49.0331238262331], [-122.682892498425, 49.0331437934764], [-122.682923760374, 49.0331604654347], [-122.682958927766, 49.0331733438814], [-122.682996945503, 49.0331820427029], [-122.683036674237, 49.0331863005937], [-122.683076924516, 49.0331859901463], [-122.683116490961, 49.0331811215438], [-122.683154187862, 49.0331718399585], [-122.683188886128, 49.0331584229546], [-122.683219546172, 49.0331412733821], [-122.683245249468, 49.0331209050694], [-122.683265227381, 49.0330979267103], [-122.683278879044, 49.0330730284192], [-122.683285798883, 49.033046954819], [-122.683285775361, 49.0330204879462], [-122.683278813041, 49.0329944194249], [-122.683265119027, 49.0329695306387], [-122.683245103127, 49.0329465675447], [-122.683219364317, 49.0329262172473], [-122.683188675804, 49.032909089967], [-122.68315923689, 49.0312541595852], [-122.685627226518, 49.0312458471067], [-122.685625699105, 49.0312470384591], [-122.685601385381, 49.0312855767812], [-122.685565143442, 49.0313744956639], [-122.685471564606, 49.03143564632], [-122.685375483444, 49.0314983022354], [-122.685349134653, 49.0315156512479], [-122.685323557751, 49.0315390231052], [-122.685209439616, 49.0315661259158], [-122.685166787217, 49.0315674821368], [-122.685105857405, 49.0315801274059], [-122.68506290585, 49.0315989656943], [-122.685013099784, 49.031641501221], [-122.684962635042, 49.0316875908829], [-122.684926876074, 49.0317305641232], [-122.684884316395, 49.0317761346983], [-122.684855137585, 49.0318182605083], [-122.6848403387, 49.031855590456], [-122.684836971309, 49.031865643722], [-122.684807334381, 49.0319122732576], [-122.684717553828, 49.0319111167509], [-122.684638916327, 49.0319237952526], [-122.68458745796, 49.0319464764185], [-122.684549171185, 49.0319776224312], [-122.684530963343, 49.0320042616613], [-122.684521291596, 49.0320353338607], [-122.684486320189, 49.0320611878171], [-122.684458491521, 49.0320989309688], [-122.684443563845, 49.0321310394741], [-122.684433810858, 49.0321520156977], [-122.68440610386, 49.03220100545], [-122.684393836159, 49.0322384430111], [-122.684386678313, 49.0323057113131], [-122.684383343023, 49.0323370554043], [-122.684357990525, 49.032394666655], [-122.68435284417, 49.0324374238873], [-122.684367945686, 49.0324784193929], [-122.684380049977, 49.032497535733], [-122.684377148528, 49.0325189040062], [-122.684322728785, 49.0325247354185], [-122.684274019759, 49.0325354868223], [-122.68424928185, 49.0325374548394], [-122.684190833783, 49.0325513837877], [-122.684141755676, 49.0325692100527], [-122.684117591641, 49.032577987471], [-122.684028881327, 49.0325947282762], [-122.683951594267, 49.0326266245757], [-122.683904032303, 49.0326391960729], [-122.683831183422, 49.0326647940455], [-122.68380275891, 49.0326837391289], [-122.683782572616, 49.0327001592301], [-122.683714053174, 49.032729061376], [-122.683675751678, 49.0327588954989], [-122.683651837991, 49.0327937553039], [-122.683646953252, 49.0328070175971], [-122.68360964281, 49.0328203529141], [-122.683553229789, 49.0328560942147], [-122.683508721629, 49.0328933838938], [-122.683472764367, 49.0329439888855], [-122.683458957649, 49.0329728619235], [-122.683442207424, 49.0329923588838], [-122.683419466337, 49.0330379337978], [-122.683394605699, 49.0330704080201], [-122.683383992731, 49.0330983119906], [-122.683383603346, 49.03313272263], [-122.683396645862, 49.033166079856], [-122.683389442306, 49.0332122910978], [-122.683383790344, 49.0332485583796], [-122.683384975084, 49.0332869385904], [-122.683387490994, 49.0333087193039], [-122.683381002494, 49.0333317167032], [-122.683366209126, 49.0334037163476], [-122.683347238927, 49.0334416481482], [-122.683338403012, 49.0334572690217], [-122.683334514985, 49.033464142673], [-122.683326437507, 49.0334809764323], [-122.683321704526, 49.0335071630816], [-122.683323562711, 49.033524792328], [-122.683312268026, 49.033546486567], [-122.683305708742, 49.033565106516], [-122.683288129929, 49.0335814680164], [-122.683263518522, 49.0336155728913], [-122.683248647042, 49.0336345424395], [-122.68321767734, 49.0336706799454], [-122.68319479212, 49.0337119401327], [-122.683191299528, 49.0337373286744], [-122.68318500715, 49.0337522557622], [-122.683179657213, 49.0337674283178], [-122.683160783887, 49.0337823064709], [-122.68313660852, 49.0338013647034], [-122.683118226461, 49.0338183752521], [-122.683102926268, 49.0338389115338], [-122.683092478062, 49.0338630098953], [-122.68308407602, 49.0338925777922], [-122.683077773075, 49.0339147597825], [-122.683060943355, 49.0339395899473], [-122.683039713856, 49.0339773193854], [-122.683033292732, 49.0340062540324], [-122.68303741932, 49.034038506435], [-122.683048869659, 49.0340625524919], [-122.683053682454, 49.0340720731417], [-122.683055003701, 49.0340880673183], [-122.683052553179, 49.0341148026562], [-122.683055998151, 49.0341387043852], [-122.683065286985, 49.0341616560381], [-122.68307663261, 49.0341789326283], [-122.683054646284, 49.0341994586363], [-122.683034711851, 49.0342219684044], [-122.682991985703, 49.034242745982], [-122.682966202848, 49.0342604558216], [-122.682936967435, 49.034282586494], [-122.682928443225, 49.0342844224604], [-122.682861511494, 49.0343067715762], [-122.682812166508, 49.034332227491], [-122.682784170665, 49.0343558413047], [-122.682752083162, 49.0343589420317], [-122.68271040508, 49.034368700099], [-122.682670398392, 49.0343858427229], [-122.682609945846, 49.034418740637], [-122.682557266479, 49.0344493543342], [-122.682529679281, 49.0344753710304], [-122.682508921742, 49.0345153739502], [-122.682507067923, 49.0345508438274], [-122.682469954502, 49.0345783266669], [-122.682451287907, 49.0346010539164], [-122.682398382758, 49.0346307682603], [-122.682356369262, 49.0346480347882], [-122.682324283566, 49.0346695106763], [-122.682291527225, 49.0346794208887], [-122.682225506372, 49.0347092078903], [-122.682192459656, 49.0347286121115], [-122.682175383185, 49.034735580737], [-122.682151631528, 49.0347483448193], [-122.680809255371, 49.0347522904646], [-122.680796766042, 49.0338622455669], [-122.680790462352, 49.0334131056238], [-122.680786657143, 49.0331420482496]]]}, "properties": {"PLAN_AREA": "South Campbell Heights", "PLAN_TYPE": "Local Area Plan", "PLAN_YEAR": 2025, "PLAN_STATUS": "Stage 2 Approved (See Surrey 2025 OCP)", "LAND_USE": "Business Employment"}}, {"type": "Feature", "geometry": {"type": "Polygon", "coordinates": [[[-122.680792119557, 49.0383423058378], [-122.680804688861, 49.0383052230568], [-122.680479566206, 49.0383056456888], [-122.68047907724, 49.0382474096715], [-122.680475832172, 49.0378617899936], [-122.680472100129, 49.037417844314], [-122.680468230745, 49.0369739872757], [-122.68046449743, 49.0365300415237], [-122.680461176561, 49.036086006024], [-122.680457863143, 49.0356418814543], [-122.680454409633, 49.0351978473176], [-122.680451234837, 49.0347534531955], [-122.682151631528, 49.0347483448193], [-122.682175383185, 49.034735580737], [-122.682192459656, 49.0347286121115], [-122.682225506372, 49.0347092078903], [-122.682291527225, 49.0346794208887], [-122.682324283566, 49.0346695106763], [-122.682356369262, 49.0346480347882], [-122.682398382758, 49.0346307682603], [-122.682451287907, 49.0346010539164], [-122.682469954502, 49.0345783266669], [-122.682507067923, 49.0345508438274], [-122.682508921742, 49.0345153739502], [-122.682529679281, 49.0344753710304], [-122.682557266479, 49.0344493543342], [-122.682609945846, 49.034418740637], [-122.682670398392, 49.0343858427229], [-122.68271040508, 49.034368700099], [-122.682752083162, 49.0343589420317], [-122.682784170665, 49.0343558413047], [-122.682812166508, 49.034332227491], [-122.682861511494, 49.0343067715762], [-122.682928443225, 49.0342844224604], [-122.682936967435, 49.034282586494], [-122.682966202848, 49.0342604558216], [-122.682991985703, 49.034242745982], [-122.683034711851, 49.0342219684044], [-122.683054646284, 49.0341994586363], [-122.68307663261, 49.0341789326283], [-122.683065286985, 49.0341616560381], [-122.683055998151, 49.0341387043852], [-122.683052553179, 49.0341148026562], [-122.683055003701, 49.0340880673183], [-122.683053682454, 49.0340720731417], [-122.683048869659, 49.0340625524919], [-122.68303741932, 49.034038506435], [-122.683033292732, 49.0340062540324], [-122.683039713856, 49.0339773193854], [-122.683060943355, 49.0339395899473], [-122.683077773075, 49.0339147597825], [-122.68308407602, 49.0338925777922], [-122.683092478062, 49.0338630098953], [-122.683102926268, 49.0338389115338], [-122.683118226461, 49.0338183752521], [-122.68313660852, 49.0338013647034], [-122.683160783887, 49.0337823064709], [-122.683179657213, 49.0337674283178], [-122.68318500715, 49.0337522557622], [-122.683191299528, 49.0337373286744], [-122.68319479212, 49.0337119401327], [-122.68321767734, 49.0336706799454], [-122.683248647042, 49.0336345424395], [-122.683263518522, 49.0336155728913], [-122.683288129929, 49.0335814680164], [-122.683305708742, 49.033565106516], [-122.683312268026, 49.033546486567], [-122.683323562711, 49.033524792328], [-122.683321704526, 49.0335071630816], [-122.683326437507, 49.0334809764323], [-122.683334514985, 49.033464142673], [-122.683338403012, 49.0334572690217], [-122.683347238927, 49.0334416481482], [-122.683366209126, 49.0334037163476], [-122.683381002494, 49.0333317167032], [-122.683387490994, 49.0333087193039], [-122.683384975084, 49.0332869385904], [-122.683383790344, 49.0332485583796], [-122.683389442306, 49.0332122910978], [-122.683396645862, 49.033166079856], [-122.683383603346, 49.03313272263], [-122.683383992731, 49.0330983119906], [-122.683394605699, 49.0330704080201], [-122.683419466337, 49.0330379337978], [-122.683442207424, 49.0329923588838], [-122.683458957649, 49.0329728619235], [-122.683472764367, 49.0329439888855], [-122.683508721629, 49.0328933838938], [-122.683553229789, 49.0328560942147], [-122.68360964281, 49.0328203529141], [-122.683646953252, 49.0328070175971], [-122.683651837991, 49.0327937553039], [-122.683675751678, 49.0327588954989], [-122.683714053174, 49.032729061376], [-122.683782572616, 49.0327001592301], [-122.68380275891, 49.0326837391289], [-122.683831183422, 49.0326647940455], [-122.683904032303, 49.0326391960729], [-122.683951594267, 49.0326266245757], [-122.684028881327, 49.0325947282762], [-122.684117591641, 49.032577987471], [-122.684141755676, 49.0325692100527], [-122.684190833783, 49.0325513837877], [-122.68424928185, 49.0325374548394], [-122.684274019759, 49.0325354868223], [-122.684322728785, 49.0325247354185], [-122.684377148528, 49.0325189040062], [-122.684380049977, 49.032497535733], [-122.684367945686, 49.0324784193929], [-122.68435284417, 49.0324374238873], [-122.684357990525, 49.032394666655], [-122.684383343023, 49.0323370554043], [-122.684386678313, 49.0323057113131], [-122.684393836159, 49.0322384430111], [-122.68440610386, 49.03220100545], [-122.684433810858, 49.0321520156977], [-122.684443563845, 49.0321310394741], [-122.684458491521, 49.0320989309688], [-122.684486320189, 49.0320611878171], [-122.684521291596, 49.0320353338607], [-122.684530963343, 49.0320042616613], [-122.684549171185, 49.0319776224312], [-122.68458745796, 49.0319464764185], [-122.684638916327, 49.0319237952526], [-122.684717553828, 49.0319111167509], [-122.684807334381, 49.0319122732576], [-122.684836971309, 49.031865643722], [-122.6848403387, 49.031855590456], [-122.684855137585, 49.0318182605083], [-122.684884316395, 49.0317761346983], [-122.684926876074, 49.0317305641232], [-122.684962635042, 49.0316875908829], [-122.685013099784, 49.031641501221], [-122.68506290585, 49.0315989656943], [-122.685105857405, 49.0315801274059], [-122.685166787217, 49.0315674821368], [-122.685209439616, 49.0315661259158], [-122.685323557751, 49.0315390231052], [-122.685349134653, 49.0315156512479], [-122.685375483444, 49.0314983022354], [-122.685471564606, 49.03143564632], [-122.685565143442, 49.0313744956639], [-122.685601385381, 49.0312855767812], [-122.685625533281, 49.0312473015781], [-122.687095631235, 49.0312561007458], [-122.688419702546, 49.0312453668836], [-122.688609239405, 49.0312438292865], [-122.688592021068, 49.0312813160085], [-122.688572110468, 49.0313317194212], [-122.68855517446, 49.0313745943558], [-122.688504540283, 49.0314341479036], [-122.688430971649, 49.0314801488291], [-122.688365710113, 49.0315453651234], [-122.688314194939, 49.0316212737805], [-122.688235346315, 49.031680439752], [-122.688203729069, 49.0316933412575], [-122.688078033702, 49.0317855184757], [-122.687970183517, 49.0318478577748], [-122.68795715494, 49.031865649098], [-122.687911491278, 49.0319122729731], [-122.687857447428, 49.0319548477386], [-122.687772130717, 49.0320216862212], [-122.687619368904, 49.032094660589], [-122.687545960121, 49.0321224956941], [-122.687515319943, 49.0321623684202], [-122.68747068048, 49.0321908337054], [-122.687459013161, 49.0322284531286], [-122.687432374067, 49.0322609674849], [-122.687349107408, 49.0323152992455], [-122.687240259071, 49.0323503785316], [-122.68711959747, 49.0323707943678], [-122.687087086605, 49.0323746777682], [-122.687064480733, 49.0323874927492], [-122.687056761644, 49.0324015094269], [-122.68704663494, 49.0324194173618], [-122.687045090152, 49.0324314483654], [-122.687058167288, 49.0325194111719], [-122.687068616899, 49.0325383626205], [-122.687080683027, 49.0325617676677], [-122.687083755393, 49.0325685874554], [-122.687088469758, 49.032588448996], [-122.687089051293, 49.0326030486075], [-122.687086096721, 49.0326167111858], [-122.687090331865, 49.0326263830278], [-122.687119172952, 49.0326655920199], [-122.687182524858, 49.0327348111736], [-122.687206388672, 49.0327827935376], [-122.687201310087, 49.0328325811252], [-122.687219859944, 49.0328939282139], [-122.687222892825, 49.0329236380536], [-122.687246894428, 49.0329928728481], [-122.687259638688, 49.0330571934268], [-122.687236020151, 49.0331389721376], [-122.687224301577, 49.0331881947955], [-122.687190256468, 49.0332512236266], [-122.687138088348, 49.0333281482686], [-122.687081088368, 49.0333847117748], [-122.687030417417, 49.0334617330808], [-122.687022365101, 49.0334688663293], [-122.686977680427, 49.0335084489368], [-122.686940223746, 49.0335499447056], [-122.68691097124, 49.033588445602], [-122.68685036589, 49.0336576227119], [-122.686787774376, 49.0337099375759], [-122.686710631642, 49.0337565474849], [-122.686670988836, 49.0337844503016], [-122.68660778635, 49.0338146198819], [-122.686521417138, 49.0338361132284], [-122.686498716936, 49.0338509653391], [-122.686456757814, 49.0338758023916], [-122.686392084048, 49.0338951371745], [-122.686275967003, 49.0338992950651], [-122.686238431548, 49.0339083631135], [-122.686216405554, 49.0339423829899], [-122.686176530316, 49.0339817219877], [-122.68616674385, 49.0340017708153], [-122.686135748594, 49.0340411825236], [-122.68609396421, 49.0340682004481], [-122.686090200941, 49.0340924809824], [-122.686074265551, 49.0341239131769], [-122.686052378227, 49.0341541264677], [-122.686039367334, 49.0341704243496], [-122.685971215064, 49.0342482539999], [-122.685893354235, 49.0343002317676], [-122.685828201347, 49.0343501211223], [-122.685819768068, 49.0343551302915], [-122.685822744515, 49.0347386776126], [-122.685828430217, 49.035832162574], [-122.685828363103, 49.0358321740856], [-122.685850267382, 49.0382985737484], [-122.68239193204, 49.0383031515845], [-122.682377938559, 49.0383210538485], [-122.682337469845, 49.0383614594349], [-122.682301387074, 49.0383935804613], [-122.681446737282, 49.0383947471657], [-122.681412109794, 49.0384853431759], [-122.680496025779, 49.0398856057206], [-122.680362133428, 49.0399752437667], [-122.680339598025, 49.0386851637401], [-122.680390799137, 49.0386414530196], [-122.680482196613, 49.0385729826062], [-122.680481284836, 49.0384865532855], [-122.680636893239, 49.038486351626], [-122.680668514328, 49.038473188645], [-122.680762596319, 49.0384388159715], [-122.680775057506, 49.0384346701976], [-122.680776907751, 49.0384138730457], [-122.680792119557, 49.0383423058378]]]}, "properties": {"PLAN_AREA": "South Campbell Heights", "PLAN_TYPE": "Local Area Plan", "PLAN_YEAR": 2025, "PLAN_STATUS": "Stage 2 Approved (See Surrey 2025 OCP)", "LAND_USE": "Conservation & Recreation"}}, {"type": "Feature", "geometry": {"type": "Polygon", "coordinates": [[[-122.686977680427, 49.0335084489368], [-122.687022365101, 49.0334688663293], [-122.687030417417, 49.0334617330808], [-122.687081088368, 49.0333847117748], [-122.687138088348, 49.0333281482686], [-122.687190256468, 49.0332512236266], [-122.687224301577, 49.0331881947955], [-122.687236020151, 49.0331389721376], [-122.687259638688, 49.0330571934268], [-122.687246894428, 49.0329928728481], [-122.687222892825, 49.0329236380536], [-122.687219859944, 49.0328939282139], [-122.687201310087, 49.0328325811252], [-122.687206388672, 49.0327827935376], [-122.687182524858, 49.0327348111736], [-122.687119172952, 49.0326655920199], [-122.687090331865, 49.0326263830278], [-122.687086096721, 49.0326167111858], [-122.687089051293, 49.0326030486075], [-122.687088469758, 49.032588448996], [-122.687083755393, 49.0325685874554], [-122.687080683027, 49.0325617676677], [-122.687068616899, 49.0325383626205], [-122.687058167288, 49.0325194111719], [-122.687045090152, 49.0324314483654], [-122.68704663494, 49.0324194173618], [-122.687056761644, 49.0324015094269], [-122.687064480733, 49.0323874927492], [-122.687087086605, 49.0323746777682], [-122.68711959747, 49.0323707943678], [-122.687240259071, 49.0323503785316], [-122.687349107408, 49.0323152992455], [-122.687432374067, 49.0322609674849], [-122.687459013161, 49.0322284531286], [-122.68747068048, 49.0321908337054], [-122.687515319943, 49.0321623684202], [-122.687545960121, 49.0321224956941], [-122.687619368904, 49.032094660589], [-122.687772130717, 49.0320216862212], [-122.687857447428, 49.0319548477386], [-122.687911491278, 49.0319122729731], [-122.68795715494, 49.031865649098], [-122.687970183517, 49.0318478577748], [-122.688078033702, 49.0317855184757], [-122.688203729069, 49.0316933412575], [-122.688235346315, 49.031680439752], [-122.688314194939, 49.0316212737805], [-122.688365710113, 49.0315453651234], [-122.688430971649, 49.0314801488291], [-122.688504540283, 49.0314341479036], [-122.68855517446, 49.0313745943558], [-122.688572110468, 49.0313317194212], [-122.688592021068, 49.0312813160085], [-122.68938117216, 49.0312786203206], [-122.689386687858, 49.0334636563773], [-122.688850193902, 49.0334648522013], [-122.687250366872, 49.0334684013988], [-122.687029765079, 49.0334688899967], [-122.687023675726, 49.0334688707834], [-122.68691097124, 49.033588445602], [-122.686940223746, 49.0335499447056], [-122.686977680427, 49.0335084489368]]]}, "properties": {"PLAN_AREA": "South Campbell Heights", "PLAN_TYPE": "Local Area Plan", "PLAN_YEAR": 2025, "PLAN_STATUS": "Stage 2 Approved (See Surrey 2025 OCP)", "LAND_USE": "Business Employment"}}, {"type": "Feature", "geometry": {"type": "Polygon", "coordinates": [[[-122.681768601937, 49.0273872919558], [-122.68175520107, 49.0273776466238], [-122.681740592973, 49.0273687916621], [-122.681724885046, 49.0273607921723], [-122.681708192774, 49.0273537069667], [-122.681690638878, 49.0273475881357], [-122.681672352416, 49.027342480665], [-122.68165346783, 49.0273384221045], [-122.681634123958, 49.0273354422929], [-122.681614463017, 49.0273335631376], [-122.681594629553, 49.0273327984542], [-122.681574769383, 49.0273331538645], [-122.681555028518, 49.0273346267557], [-122.681535552092, 49.027337206299], [-122.681516483296, 49.0273408735297], [-122.681497962323, 49.0273456014864], [-122.681480125341, 49.027351355409], [-122.681463103485, 49.0273580929949], [-122.681447021902, 49.0273657647093], [-122.681431998824, 49.0273743141498], [-122.6814181447, 49.0273836784609], [-122.681412815002, 49.0273877774317], [-122.68014232324, 49.0273895028069], [-122.680113512732, 49.0257395211105], [-122.68059386664, 49.0259203057301], [-122.680774597362, 49.025808655043], [-122.680863333266, 49.0252668348437], [-122.681280479492, 49.0252243734914], [-122.681526094136, 49.0253372033118], [-122.682189333033, 49.0253328005889], [-122.682588441101, 49.0251469804771], [-122.682693490376, 49.0250164257271], [-122.682779629816, 49.0248795885471], [-122.682839205836, 49.0244498392094], [-122.683110618406, 49.0243892213898], [-122.683362601078, 49.0243848917469], [-122.683607667936, 49.0244476407557], [-122.683813322667, 49.0244920948597], [-122.684021578079, 49.024536549421], [-122.684084323925, 49.0245431944481], [-122.68415338506, 49.0245433834947], [-122.684310129206, 49.0245771096139], [-122.684461353035, 49.0246588335261], [-122.684603698942, 49.0247677572492], [-122.684756944777, 49.0248703920643], [-122.684877225411, 49.024939434356], [-122.684989941066, 49.0249785005334], [-122.685097216946, 49.0250097444776], [-122.685219868827, 49.0250152605803], [-122.68534876346, 49.0250147476346], [-122.685400266063, 49.0250025191109], [-122.685450209948, 49.024985406204], [-122.685538093177, 49.0249552927838], [-122.685591310268, 49.0249290663009], [-122.685643017538, 49.0248665150589], [-122.68566773415, 49.0247973846593], [-122.685671552126, 49.0247867055914], [-122.685698233447, 49.026116667371], [-122.685662143753, 49.0261266684232], [-122.685629168882, 49.0261405622475], [-122.685600271643, 49.0261579457686], [-122.685576296511, 49.0261783094411], [-122.685557942122, 49.026201060563], [-122.685545744792, 49.0262255340246], [-122.685540060584, 49.0262510156486], [-122.685541054243, 49.0262767610495], [-122.685548697677, 49.026302019918], [-122.685562768469, 49.0263260549076], [-122.685582855208, 49.0263481632386], [-122.685608372381, 49.0263677010272], [-122.685638572599, 49.0263840977123], [-122.685656896397, 49.0273892594895], [-122.682955880742, 49.0273856628168], [-122.681768601937, 49.0273872919558]]]}, "properties": {"PLAN_AREA": "South Campbell Heights", "PLAN_TYPE": "Local Area Plan", "PLAN_YEAR": 2025, "PLAN_STATUS": "Stage 2 Approved (See Surrey 2025 OCP)", "LAND_USE": "Business Employment"}}, {"type": "Feature", "geometry": {"type": "Polygon", "coordinates": [[[-122.695951752771, 49.0309480197201], [-122.69141185077, 49.0309222200428], [-122.69141923729, 49.0309009112588], [-122.691420969264, 49.0308458260174], [-122.691468349434, 49.0308441499875], [-122.691521658448, 49.0308332198347], [-122.691567174424, 49.0308139856924], [-122.691677946708, 49.0307505605668], [-122.691700228356, 49.0307327836469], [-122.691727386356, 49.0306940825205], [-122.691764860743, 49.0306697650009], [-122.691792637163, 49.0306412269257], [-122.691805723344, 49.0306107353508], [-122.691874773317, 49.0305682383787], [-122.69193634158, 49.0305299223317], [-122.691989356668, 49.0304838733048], [-122.692039357501, 49.0304126186695], [-122.692099880313, 49.0303106694564], [-122.692125761045, 49.0302689225181], [-122.692171500404, 49.030232206707], [-122.692237448211, 49.0302087871789], [-122.692301568849, 49.0301826127899], [-122.692372456938, 49.0301371482765], [-122.692426160087, 49.0300845385992], [-122.69243906138, 49.0300406772143], [-122.692452117445, 49.0299865720646], [-122.692446587066, 49.0299654033007], [-122.692443684207, 49.0299542941089], [-122.692420149234, 49.0299027433344], [-122.692414084623, 49.0298570592673], [-122.692460364006, 49.0298214125552], [-122.69249663303, 49.0297936237832], [-122.692525784885, 49.0297457513767], [-122.69254032915, 49.0296956460199], [-122.692558527296, 49.0296451033148], [-122.692590487303, 49.0295606281256], [-122.692598501856, 49.0295067649995], [-122.692713789342, 49.0295085014473], [-122.692730322281, 49.0295068489025], [-122.692810327264, 49.0294988561271], [-122.692892779755, 49.0294875009617], [-122.692963057922, 49.0294595398735], [-122.693001791081, 49.0294276015356], [-122.693037767113, 49.0293575046584], [-122.693074515178, 49.0293031035273], [-122.693096150001, 49.0292799857316], [-122.69311403099, 49.0292608762787], [-122.693134080691, 49.0292265673457], [-122.693170110674, 49.0292050404532], [-122.693202290705, 49.0291822403332], [-122.69322248291, 49.0291598940979], [-122.693238859799, 49.0291259702886], [-122.693240807494, 49.0290870821363], [-122.693241255861, 49.0290617688402], [-122.693247116858, 49.0290532287152], [-122.693283766117, 49.0290326326772], [-122.693308729964, 49.029025391009], [-122.693359611075, 49.0290153684041], [-122.693426032604, 49.0290039999436], [-122.693465414064, 49.0289904591506], [-122.693498585488, 49.0289730247513], [-122.693508086145, 49.0289676850154], [-122.693551277632, 49.0289434153776], [-122.693668590603, 49.0288752803109], [-122.693981865569, 49.02868940893], [-122.693998305602, 49.0286796554285], [-122.694235287742, 49.0285390474339], [-122.694303041, 49.0284988484319], [-122.69458491628, 49.0285007201441], [-122.695900688858, 49.0285094493301], [-122.695917127365, 49.0292945440222], [-122.695917166567, 49.0292964170071], [-122.695951752771, 49.0309480197201]]]}, "properties": {"PLAN_AREA": "South Campbell Heights", "PLAN_TYPE": "Local Area Plan", "PLAN_YEAR": 2025, "PLAN_STATUS": "Stage 2 Approved (See Surrey 2025 OCP)", "LAND_USE": "Cemetery"}}, {"type": "Feature", "geometry": {"type": "Polygon", "coordinates": [[[-122.699507656276, 49.0381842721999], [-122.699611957578, 49.0380965409319], [-122.6996558155, 49.0380698950481], [-122.699716225449, 49.0380513504533], [-122.699785226829, 49.038046622891], [-122.699856151837, 49.0380582848299], [-122.699917606016, 49.0380765275489], [-122.699987337, 49.0380972268546], [-122.700039825618, 49.0380926451179], [-122.700072031111, 49.038081063362], [-122.700129900315, 49.0380709039189], [-122.700228770851, 49.0380747446239], [-122.700330417688, 49.0380806137589], [-122.700392468148, 49.0380952901285], [-122.700437107997, 49.0381176772559], [-122.700472526722, 49.0381185149231], [-122.700501538769, 49.0380832142239], [-122.7005540552, 49.0380441306993], [-122.700598413577, 49.0380117474789], [-122.700643246543, 49.0379807543891], [-122.700681641009, 49.0379640475462], [-122.700723519113, 49.0379539317867], [-122.700766776172, 49.0379299376167], [-122.700821747928, 49.0379082397862], [-122.700872692937, 49.0378940688841], [-122.700884954864, 49.0378849737565], [-122.70092610554, 49.0378544504763], [-122.700976700756, 49.0378276326427], [-122.70099031569, 49.0378167346983], [-122.701037925254, 49.037791531004], [-122.701087604594, 49.0377780241997], [-122.701164867992, 49.0377737903794], [-122.701274120837, 49.0377745473034], [-122.7013066163, 49.0377542159576], [-122.701347435554, 49.037738309478], [-122.701385996144, 49.0377303510268], [-122.701379951483, 49.0372233762485], [-122.701316062066, 49.0372175284033], [-122.701263730696, 49.0372037934369], [-122.701228675848, 49.0371870824615], [-122.701200013856, 49.0371853584651], [-122.701163772465, 49.0371787527262], [-122.70112936802, 49.0371699595115], [-122.701056301059, 49.03715012752], [-122.700985502664, 49.0371083809408], [-122.700961821955, 49.0370868723284], [-122.700915110206, 49.0370776783389], [-122.700878804456, 49.0370642554961], [-122.700821354771, 49.0370236201847], [-122.700770645803, 49.0369682495778], [-122.70074474867, 49.0369244036553], [-122.700717008559, 49.0368641459156], [-122.700692803409, 49.0365848352572], [-122.700692392991, 49.036512996416], [-122.700713215427, 49.0364737964204], [-122.700726910944, 49.0364414316688], [-122.700751720617, 49.0363830094621], [-122.700807988178, 49.0363322628777], [-122.700875503814, 49.0362958420921], [-122.700987445048, 49.0362572712977], [-122.701068596329, 49.0362351500154], [-122.701135779283, 49.0362334241568], [-122.701196476933, 49.0362449607384], [-122.701271215236, 49.036284099681], [-122.701297773668, 49.0362799054227], [-122.701361304, 49.0362794851318], [-122.701437790564, 49.0362978990824], [-122.701526459516, 49.0363259247807], [-122.701538039392, 49.0363017674224], [-122.70156382425, 49.0362404860694], [-122.701584222914, 49.0362031496025], [-122.701646553913, 49.0361481705758], [-122.701716359505, 49.0361242554722], [-122.701729950268, 49.0361140914143], [-122.70180747897, 49.0360783085609], [-122.701921461199, 49.0360441706564], [-122.701983115122, 49.0360362464633], [-122.702087804358, 49.0360447360265], [-122.702129158223, 49.0360329650143], [-122.702161093487, 49.0360264662752], [-122.702210722599, 49.0360233199611], [-122.702239860996, 49.0360253498865], [-122.702245282637, 49.0370342564768], [-122.702252838186, 49.0384402959993], [-122.701394323241, 49.0384286189472], [-122.700252339099, 49.0384123656633], [-122.699621627035, 49.0384037235817], [-122.699224637447, 49.0383983519276], [-122.699220623276, 49.0383821962091], [-122.699221646439, 49.0383600058949], [-122.699243699447, 49.0383126441004], [-122.699284271481, 49.0382739276295], [-122.699348513209, 49.0382421652204], [-122.699428241256, 49.0382187010483], [-122.699507656276, 49.0381842721999]]]}, "properties": {"PLAN_AREA": "South Campbell Heights", "PLAN_TYPE": "Local Area Plan", "PLAN_YEAR": 2025, "PLAN_STATUS": "Stage 2 Approved (See Surrey 2025 OCP)", "LAND_USE": "Conservation & Recreation"}}, {"type": "Feature", "geometry": {"type": "Polygon", "coordinates": [[[-122.691107869076, 49.0255547613826], [-122.691108009935, 49.0255682479557], [-122.691108338133, 49.0255998665517], [-122.691109849696, 49.0256462707762], [-122.691117331909, 49.0264063357667], [-122.691117451002, 49.0264761589841], [-122.691117966983, 49.02652584033], [-122.691119013259, 49.0265771432013], [-122.691118884629, 49.0266140580739], [-122.691127922663, 49.0274830385334], [-122.691134706825, 49.0282178175041], [-122.691135960766, 49.0283405567015], [-122.691136184837, 49.0283624813549], [-122.691136596028, 49.0284027970945], [-122.691136925012, 49.0284349563119], [-122.691137270977, 49.0284687923526], [-122.691137587564, 49.0284998603713], [-122.691137840125, 49.0285244756814], [-122.691138157936, 49.0285555670917], [-122.691138285613, 49.0285680910943], [-122.691138609443, 49.0285997573386], [-122.691138898926, 49.0286281320043], [-122.691139182354, 49.0286559381323], [-122.69113955167, 49.0286919691583], [-122.691140012913, 49.0287372389011], [-122.691140308667, 49.0287661479209], [-122.691140906547, 49.0288247045152], [-122.691141503431, 49.0288615421539], [-122.691142103412, 49.0289418608837], [-122.691143346574, 49.0290634728893], [-122.691143898568, 49.029117509074], [-122.691144352901, 49.0291619071223], [-122.691144734302, 49.0291993019087], [-122.691145083646, 49.0292250788054], [-122.691145254187, 49.0292501274804], [-122.691145436311, 49.0292680004046], [-122.691147362483, 49.0294565207238], [-122.691131300124, 49.0294849109909], [-122.691117786116, 49.0294969837815], [-122.685973480027, 49.029523506836], [-122.685933996706, 49.0275734494092], [-122.688424415723, 49.0275730642814], [-122.6884508143, 49.0275930284079], [-122.688482050005, 49.0276097015054], [-122.688517187536, 49.0276225844886], [-122.688555177331, 49.0276312931083], [-122.688594878776, 49.0276355652107], [-122.688635108007, 49.0276352734604], [-122.688674657052, 49.0276304271919], [-122.688712345825, 49.0276211707503], [-122.688747042656, 49.0276077817474], [-122.68877771224, 49.0275906603963], [-122.688803436213, 49.027570319671], [-122.688823443367, 49.0275473673963], [-122.688837135729, 49.0275224910252], [-122.688844102378, 49.027496436086], [-122.688844137386, 49.0274699801433], [-122.688837237185, 49.0274439165989], [-122.688823608956, 49.0274190250283], [-122.688803661183, 49.0273960504664], [-122.688777991477, 49.0273756808853], [-122.688747366196, 49.0273585255508], [-122.688712704135, 49.0273450969876], [-122.68867503968, 49.0273357982865], [-122.688635502375, 49.0273309077575], [-122.688595275939, 49.0273305716229], [-122.688555562727, 49.027334799424], [-122.688517550891, 49.0273434648319], [-122.688482380175, 49.0273563082537], [-122.688451100816, 49.0273729457169], [-122.688424651593, 49.0273928796045], [-122.685930508123, 49.0273896203754], [-122.685912129412, 49.0263820926546], [-122.685942041125, 49.0263647954761], [-122.685966987772, 49.0263443759008], [-122.685986226865, 49.0263214400136], [-122.685999186419, 49.0262966717254], [-122.686005478797, 49.0262708067225], [-122.686004919966, 49.0262446154279], [-122.68599752281, 49.0262188777943], [-122.685983510973, 49.0261943581553], [-122.685963299814, 49.0261717871814], [-122.68593748973, 49.0261518366752], [-122.685906851233, 49.0261350988413], [-122.685872293575, 49.0261220736073], [-122.685834845724, 49.0261131469835], [-122.685797394081, 49.0242004957775], [-122.6910939054, 49.0242120485218], [-122.691107869076, 49.0255547613826]]]}, "properties": {"PLAN_AREA": "South Campbell Heights", "PLAN_TYPE": "Local Area Plan", "PLAN_YEAR": 2025, "PLAN_STATUS": "Stage 2 Approved (See Surrey 2025 OCP)", "LAND_USE": "Business Employment"}}, {"type": "Feature", "geometry": {"type": "Polygon", "coordinates": [[[-122.685660653861, 49.0242434029949], [-122.685671552126, 49.0247867055914], [-122.68566773415, 49.0247973846593], [-122.685643017538, 49.0248665150589], [-122.685591310268, 49.0249290663009], [-122.685538093177, 49.0249552927838], [-122.685450209948, 49.024985406204], [-122.685400266063, 49.0250025191109], [-122.68534876346, 49.0250147476346], [-122.685219868827, 49.0250152605803], [-122.685097216946, 49.0250097444776], [-122.684989941066, 49.0249785005334], [-122.684877225411, 49.024939434356], [-122.684756944777, 49.0248703920643], [-122.684603698942, 49.0247677572492], [-122.684461353035, 49.0246588335261], [-122.684310129206, 49.0245771096139], [-122.68415338506, 49.0245433834947], [-122.684084323925, 49.0245431944481], [-122.684021578079, 49.024536549421], [-122.683813322667, 49.0244920948597], [-122.683607667936, 49.0244476407557], [-122.683362601078, 49.0243848917469], [-122.683110618406, 49.0243892213898], [-122.682839205836, 49.0244498392094], [-122.682784708362, 49.0249022453253], [-122.682588441101, 49.0251469804771], [-122.682189333033, 49.0253328005889], [-122.681526094136, 49.0253372033118], [-122.681280479492, 49.0252243734914], [-122.680863333266, 49.0252668348437], [-122.680774597362, 49.025808655043], [-122.68059386664, 49.0259203057301], [-122.680390824695, 49.0258008244707], [-122.680139425381, 49.025912528774], [-122.680093491092, 49.0243050492625], [-122.680080573888, 49.0238529585297], [-122.682162506904, 49.0238607500751], [-122.682660567576, 49.0238626200868], [-122.682869386824, 49.0238634037541], [-122.683499528374, 49.0238657311083], [-122.683898659139, 49.0238672038518], [-122.685653419267, 49.0238737775516], [-122.685660653861, 49.0242434029949]]]}, "properties": {"PLAN_AREA": "South Campbell Heights", "PLAN_TYPE": "Local Area Plan", "PLAN_YEAR": 2025, "PLAN_STATUS": "Stage 2 Approved (See Surrey 2025 OCP)", "LAND_USE": "Conservation & Recreation"}}, {"type": "Feature", "geometry": {"type": "Polygon", "coordinates": [[[-122.685794184247, 49.0238742940574], [-122.691092605896, 49.0238947082522], [-122.691091535039, 49.0239841827958], [-122.6910939054, 49.0242120485218], [-122.685797394081, 49.0242004957775], [-122.685775258317, 49.0242004471976], [-122.685736344937, 49.0242003115432], [-122.685659805307, 49.0242000446007], [-122.685653419267, 49.0238737775516], [-122.685794184247, 49.0238742940574]]]}, "properties": {"PLAN_AREA": "South Campbell Heights", "PLAN_TYPE": "Local Area Plan", "PLAN_YEAR": 2025, "PLAN_STATUS": "Stage 2 Approved (See Surrey 2025 OCP)", "LAND_USE": "Conservation & Recreation"}}, {"type": "Feature", "geometry": {"type": "Polygon", "coordinates": [[[-122.691117786116, 49.0294969837815], [-122.691091195495, 49.0295207437184], [-122.691022365164, 49.02957318634], [-122.690965280796, 49.0296381561485], [-122.690928797383, 49.0297094924104], [-122.690909422577, 49.0297313033958], [-122.69088797581, 49.0297554476809], [-122.690868538242, 49.0297838504584], [-122.690844116439, 49.0298021837114], [-122.690762159228, 49.0298052025284], [-122.690701244517, 49.029815988707], [-122.6906174526, 49.0298249917665], [-122.690470962396, 49.0297648799207], [-122.690351218075, 49.0297573046301], [-122.690293042017, 49.0297714092181], [-122.690239182253, 49.0297909829866], [-122.69010044695, 49.0298081105179], [-122.690046923489, 49.0298173518672], [-122.689812277354, 49.0298147720397], [-122.689656782388, 49.029806811168], [-122.689548110677, 49.0298199213914], [-122.689418667979, 49.0298504549399], [-122.689326896939, 49.0298859159013], [-122.689279032146, 49.0299213933694], [-122.68925030411, 49.0299564905629], [-122.689174394122, 49.0299852726091], [-122.689037421697, 49.0300903588749], [-122.688903256014, 49.0302022253215], [-122.688874631909, 49.0302344081298], [-122.688345783502, 49.0301917156333], [-122.688302855176, 49.0301831339419], [-122.688216837388, 49.0301847591608], [-122.688149195267, 49.0302049289043], [-122.688107191636, 49.0302307253795], [-122.688077144836, 49.0302643470373], [-122.688052730417, 49.0302837043163], [-122.688035460094, 49.0302929518712], [-122.687984040853, 49.0302996108208], [-122.687937025187, 49.0303148148706], [-122.687889062462, 49.0303423232037], [-122.68783104797, 49.0303791444448], [-122.687789090215, 49.0304001831614], [-122.68773162453, 49.0304216440716], [-122.687471373165, 49.0305592556978], [-122.687395774161, 49.0305992297246], [-122.687357126061, 49.030626699199], [-122.68733001359, 49.0306632755646], [-122.687313038936, 49.0306894804946], [-122.687240418328, 49.0307140971263], [-122.687171527625, 49.03073467401], [-122.687097020787, 49.0307725287418], [-122.687063115783, 49.0308108407655], [-122.687027421703, 49.0308674134668], [-122.687024384725, 49.030937410689], [-122.687025253617, 49.0309495948696], [-122.686002329913, 49.0309482778402], [-122.685973480027, 49.029523506836], [-122.691117786116, 49.0294969837815]]]}, "properties": {"PLAN_AREA": "South Campbell Heights", "PLAN_TYPE": "Local Area Plan", "PLAN_YEAR": 2025, "PLAN_STATUS": "Stage 2 Approved (See Surrey 2025 OCP)", "LAND_USE": "Business Employment"}}, {"type": "Feature", "geometry": {"type": "Polygon", "coordinates": [[[-122.69864412181, 49.0239013681508], [-122.698645528722, 49.0236683660731], [-122.698646162014, 49.0236683695261], [-122.698648963237, 49.0232044423931], [-122.698499813343, 49.0231018933864], [-122.698411645786, 49.02293484412], [-122.698213544785, 49.0227835644721], [-122.698189515902, 49.0227313766316], [-122.698000203879, 49.0225476625776], [-122.697927056842, 49.0223927018377], [-122.697849768529, 49.0221062451227], [-122.697805250963, 49.021990533292], [-122.697805182543, 49.0218692247486], [-122.697647914115, 49.0218905623468], [-122.697358430317, 49.0218850430141], [-122.696795439755, 49.0217837778011], [-122.696103325676, 49.0216534603962], [-122.695896163871, 49.0217294231189], [-122.695603213166, 49.0218749524637], [-122.695561705351, 49.0218808961025], [-122.695392367448, 49.0218724926134], [-122.695388288108, 49.0225409007886], [-122.695517752153, 49.0225473261922], [-122.695538347746, 49.0225770795053], [-122.695624155771, 49.0226327799342], [-122.695744620331, 49.0227434619267], [-122.695811040268, 49.022843331658], [-122.695876955699, 49.0229546568138], [-122.695948987066, 49.0230648457084], [-122.695964685416, 49.023175577908], [-122.695945141112, 49.0233362318727], [-122.695854369982, 49.023467345484], [-122.695625484144, 49.0236182629315], [-122.695363299436, 49.0237631252397], [-122.695373795717, 49.0219302799002], [-122.695383344494, 49.0202628246319], [-122.699471323223, 49.0202735437512], [-122.699452465954, 49.0234052461821], [-122.699450856724, 49.0236724723996], [-122.699449478354, 49.0239013590734], [-122.69864412181, 49.0239013681508]]]}, "properties": {"PLAN_AREA": "South Campbell Heights", "PLAN_TYPE": "Local Area Plan", "PLAN_YEAR": 2025, "PLAN_STATUS": "Stage 2 Approved (See Surrey 2025 OCP)", "LAND_USE": "Conservation & Recreation"}}, {"type": "Feature", "geometry": {"type": "Polygon", "coordinates": [[[-122.685792777675, 49.0239647436667], [-122.685834845724, 49.0261131469835], [-122.685767862386, 49.026106104562], [-122.685698233447, 49.026116667371], [-122.685655291281, 49.023969423852], [-122.685792777675, 49.0239647436667]]]}, "properties": {"PLAN_AREA": "South Campbell Heights", "PLAN_TYPE": "Local Area Plan", "PLAN_YEAR": 2025, "PLAN_STATUS": "Stage 2 Approved (See Surrey 2025 OCP)", "LAND_USE": "Business Employment"}}, {"type": "Feature", "geometry": {"type": "Polygon", "coordinates": [[[-122.682830748715, 49.0330764816371], [-122.682845285248, 49.0331011622933], [-122.682839719355, 49.0330931241098], [-122.682834868452, 49.0330848880683], [-122.682830748715, 49.0330764816371]]]}, "properties": {"PLAN_AREA": "South Campbell Heights", "PLAN_TYPE": "Local Area Plan", "PLAN_YEAR": 2025, "PLAN_STATUS": "Stage 2 Approved (See Surrey 2025 OCP)", "LAND_USE": "Business Employment"}}, {"type": "Feature", "geometry": {"type": "Polygon", "coordinates": [[[-122.682840817625, 49.0329728001174], [-122.682828014129, 49.0329978922944], [-122.682831544421, 49.0329893707099], [-122.682835817003, 49.0329809973412], [-122.682840817625, 49.0329728001174]]]}, "properties": {"PLAN_AREA": "South Campbell Heights", "PLAN_TYPE": "Local Area Plan", "PLAN_YEAR": 2025, "PLAN_STATUS": "Stage 2 Approved (See Surrey 2025 OCP)", "LAND_USE": "Business Employment"}}, {"type": "Feature", "geometry": {"type": "Polygon", "coordinates": [[[-122.682845285248, 49.0331011622933], [-122.682866075906, 49.0331238262331], [-122.682858485531, 49.0331165391384], [-122.682851547598, 49.0331089760833], [-122.682845285248, 49.0331011622933]]]}, "properties": {"PLAN_AREA": "South Campbell Heights", "PLAN_TYPE": "Local Area Plan", "PLAN_YEAR": 2025, "PLAN_STATUS": "Stage 2 Approved (See Surrey 2025 OCP)", "LAND_USE": "Business Employment"}}, {"type": "Feature", "geometry": {"type": "Polygon", "coordinates": [[[-122.682821981351, 49.0330240609601], [-122.682822902143, 49.0330505213037], [-122.682821820119, 49.0330417177617], [-122.682821512847, 49.0330328878296], [-122.682821981351, 49.0330240609601]]]}, "properties": {"PLAN_AREA": "South Campbell Heights", "PLAN_TYPE": "Local Area Plan", "PLAN_YEAR": 2025, "PLAN_STATUS": "Stage 2 Approved (See Surrey 2025 OCP)", "LAND_USE": "Business Employment"}}, {"type": "Feature", "geometry": {"type": "Polygon", "coordinates": [[[-122.682860009466, 49.0329495345074], [-122.682840817625, 49.0329728001174], [-122.682846529677, 49.0329648061226], [-122.682852934078, 49.0329570422868], [-122.682860009466, 49.0329495345074]]]}, "properties": {"PLAN_AREA": "South Campbell Heights", "PLAN_TYPE": "Local Area Plan", "PLAN_YEAR": 2025, "PLAN_STATUS": "Stage 2 Approved (See Surrey 2025 OCP)", "LAND_USE": "Business Employment"}}, {"type": "Feature", "geometry": {"type": "Polygon", "coordinates": [[[-122.682828014129, 49.0329978922944], [-122.682821981351, 49.0330240609601], [-122.68282322443, 49.0330152665077], [-122.682825237594, 49.0330065339095], [-122.682828014129, 49.0329978922944]]]}, "properties": {"PLAN_AREA": "South Campbell Heights", "PLAN_TYPE": "Local Area Plan", "PLAN_YEAR": 2025, "PLAN_STATUS": "Stage 2 Approved (See Surrey 2025 OCP)", "LAND_USE": "Business Employment"}}, {"type": "Feature", "geometry": {"type": "Polygon", "coordinates": [[[-122.682822902143, 49.0330505213037], [-122.682830748715, 49.0330764816371], [-122.682827374008, 49.0330679324052], [-122.682824755572, 49.033059269328], [-122.682822902143, 49.0330505213037]]]}, "properties": {"PLAN_AREA": "South Campbell Heights", "PLAN_TYPE": "Local Area Plan", "PLAN_YEAR": 2025, "PLAN_STATUS": "Stage 2 Approved (See Surrey 2025 OCP)", "LAND_USE": "Business Employment"}}, {"type": "Feature", "geometry": {"type": "Polygon", "coordinates": [[[-122.682860009466, 49.0329495345074], [-122.680783911249, 49.0329461995805], [-122.680772901541, 49.0321615714697], [-122.680760281497, 49.0312621892851], [-122.68288563416, 49.031255077637], [-122.682915085164, 49.0329111982434], [-122.682885014709, 49.0329287937378], [-122.682860009466, 49.0329495345074]]]}, "properties": {"PLAN_AREA": "South Campbell Heights", "PLAN_TYPE": "Local Area Plan", "PLAN_YEAR": 2025, "PLAN_STATUS": "Stage 2 Approved (See Surrey 2025 OCP)", "LAND_USE": "Business Employment"}}, {"type": "Feature", "geometry": {"type": "Polygon", "coordinates": [[[-122.680435764532, 49.0331437182023], [-122.680786662592, 49.0331420518629], [-122.680809255371, 49.0347522904646], [-122.680450531182, 49.0347524518379], [-122.680435764532, 49.0331437182023]]]}, "properties": {"PLAN_AREA": "South Campbell Heights", "PLAN_TYPE": "Local Area Plan", "PLAN_YEAR": 2025, "PLAN_STATUS": "Stage 2 Approved (See Surrey 2025 OCP)", "LAND_USE": "Buffer"}}, {"type": "Feature", "geometry": {"type": "Polygon", "coordinates": [[[-122.697906430765, 49.0305322677722], [-122.697964745741, 49.0304813218602], [-122.698016658731, 49.0304274645936], [-122.69806183527, 49.0303710429866], [-122.698099984299, 49.0303124205743], [-122.698130860042, 49.030251975071], [-122.698181792441, 49.0301012145166], [-122.698190523958, 49.0309541871694], [-122.697909292046, 49.0309596582604], [-122.697906430765, 49.0305322677722]]]}, "properties": {"PLAN_AREA": "South Campbell Heights", "PLAN_TYPE": "Local Area Plan", "PLAN_YEAR": 2025, "PLAN_STATUS": "Stage 2 Approved (See Surrey 2025 OCP)", "LAND_USE": "Business Employment"}}, {"type": "Feature", "geometry": {"type": "Polygon", "coordinates": [[[-122.695367221297, 49.0239013520457], [-122.695369121182, 49.0237370992537], [-122.695579194415, 49.0237313747074], [-122.695572198421, 49.024081333556], [-122.695365840336, 49.024080309506], [-122.69455510391, 49.0240762809], [-122.694550294102, 49.0239511933868], [-122.694541030382, 49.0239314046388], [-122.694529073671, 49.0239274338159], [-122.694535232181, 49.0238998732154], [-122.694849237118, 49.0239005969501], [-122.69536250772, 49.023901345899], [-122.695367221297, 49.0239013520457]]]}, "properties": {"PLAN_AREA": "South Campbell Heights", "PLAN_TYPE": "Local Area Plan", "PLAN_YEAR": 2025, "PLAN_STATUS": "Stage 2 Approved (See Surrey 2025 OCP)", "LAND_USE": "Business Employment"}}, {"type": "Feature", "geometry": {"type": "Polygon", "coordinates": [[[-122.695358711616, 49.0225409423518], [-122.695356855863, 49.0218742051838], [-122.695685353468, 49.0218787538586], [-122.695694838565, 49.0225541154282], [-122.695358711616, 49.0225409423518]]]}, "properties": {"PLAN_AREA": "South Campbell Heights", "PLAN_TYPE": "Local Area Plan", "PLAN_YEAR": 2025, "PLAN_STATUS": "Stage 2 Approved (See Surrey 2025 OCP)", "LAND_USE": "Business Employment"}}, {"type": "Feature", "geometry": {"type": "MultiPolygon", "coordinates": [[[[-122.693515915496, 49.0383055473919], [-122.691567932462, 49.0382801211258], [-122.691513630773, 49.0312310668681], [-122.693254110536, 49.0312366086649], [-122.693221556708, 49.03339701499], [-122.6934738227, 49.0333990319715], [-122.693484716138, 49.034756424886], [-122.693513749814, 49.0380592104109], [-122.693515915496, 49.0383055473919]]], [[[-122.691140906547, 49.0288247045152], [-122.691140163885, 49.0287519668852], [-122.691139734669, 49.0287099212478], [-122.691137793061, 49.0285199237867], [-122.691137498271, 49.028491080436], [-122.691136184837, 49.0283624813549], [-122.691136781856, 49.0283818360666], [-122.691118818515, 49.0265573334837], [-122.691118884629, 49.0266140580739], [-122.69111601716, 49.0263382958729], [-122.69111747062, 49.0264203908536], [-122.691109585864, 49.0256195018781], [-122.69111601716, 49.0263382958729], [-122.691107869076, 49.0255547613826], [-122.691109024838, 49.0255625141814], [-122.691092605896, 49.0238947082522], [-122.691369458424, 49.0238954544395], [-122.691369449442, 49.0238944738953], [-122.694625281978, 49.023900087265], [-122.694619932821, 49.0239060398889], [-122.69459845872, 49.0239223910274], [-122.694550294102, 49.0239511933868], [-122.694556652896, 49.0239619788476], [-122.694565720857, 49.023987159037], [-122.694565862494, 49.0240239154216], [-122.69455510391, 49.0240762809], [-122.69454545477, 49.0241085099713], [-122.694541063399, 49.0241313957396], [-122.694540377734, 49.0241593918203], [-122.694539734359, 49.0241856185789], [-122.694560033421, 49.0241990226756], [-122.694588947665, 49.0242213039363], [-122.694619370076, 49.0242635800953], [-122.694633601154, 49.0242886426057], [-122.69465194258, 49.0243210977774], [-122.694656224791, 49.0243406412474], [-122.694655952552, 49.024359874012], [-122.694661053843, 49.0243647064513], [-122.694672632065, 49.0243802553905], [-122.694691510468, 49.0244103578285], [-122.694703521305, 49.0244370300645], [-122.694709632607, 49.0244585493063], [-122.694767091634, 49.0246608836275], [-122.694777759716, 49.0246984504674], [-122.694780989273, 49.024722828079], [-122.694777693681, 49.0247463752297], [-122.694766040959, 49.0247883889232], [-122.694751220353, 49.024819645398], [-122.694730658014, 49.0248429714568], [-122.694703144839, 49.0248690839494], [-122.694701803767, 49.0249150128126], [-122.69470804284, 49.0249230335999], [-122.694724598031, 49.0249391750157], [-122.694737949464, 49.0249513229052], [-122.694751804215, 49.0249639291008], [-122.694767503514, 49.0249851534564], [-122.694780351887, 49.0250144744012], [-122.694789160011, 49.0250394703708], [-122.69479153638, 49.025064462822], [-122.694787891982, 49.025085993136], [-122.694779612467, 49.0251058524024], [-122.694761269969, 49.0251309888535], [-122.694737667921, 49.0251521020516], [-122.694706446186, 49.0251779996336], [-122.694702866447, 49.0251889530948], [-122.694694334115, 49.0252058575325], [-122.694680931174, 49.0252235838739], [-122.694655277788, 49.025246168704], [-122.694626688798, 49.0252629561948], [-122.694589574276, 49.0252771969508], [-122.694554357258, 49.0252851368054], [-122.694550204915, 49.0253076166011], [-122.694543694302, 49.0253381457096], [-122.694533668398, 49.0253679719518], [-122.694520125355, 49.0253884577518], [-122.694499583602, 49.0254088116774], [-122.694475061223, 49.0254255973024], [-122.694472003974, 49.0254481654523], [-122.694464492983, 49.0254704897236], [-122.694449724107, 49.0254936799434], [-122.694429582621, 49.0255138846896], [-122.694404709895, 49.0255311317452], [-122.69437317388, 49.025546186013], [-122.694343743463, 49.0255555876203], [-122.694336874822, 49.0255592315333], [-122.694320297553, 49.0255696836819], [-122.694288691942, 49.0255896151536], [-122.694255984598, 49.0256031613232], [-122.694224210089, 49.0256115815668], [-122.694122242668, 49.0256493312096], [-122.694113560967, 49.0256508356489], [-122.694090537447, 49.0256622835806], [-122.694085542371, 49.0256680050303], [-122.694066305102, 49.0256854909423], [-122.694043646174, 49.025700385144], [-122.694010260781, 49.0257156233164], [-122.693989964229, 49.0257211413666], [-122.69396710953, 49.0257273560844], [-122.693941781906, 49.0257313000478], [-122.693918205636, 49.0257461000366], [-122.693905383853, 49.0257675816896], [-122.693894943409, 49.0257850765136], [-122.693885077356, 49.0258034832145], [-122.693873040999, 49.0258293792863], [-122.693859027707, 49.0258519795235], [-122.693844670446, 49.0258675442917], [-122.693814007546, 49.0258902757635], [-122.693772360154, 49.0259123672772], [-122.693750109644, 49.0259353504433], [-122.693756784358, 49.0259474969167], [-122.693764629937, 49.0259743668872], [-122.693764495737, 49.0259966819013], [-122.69376118483, 49.0260224095095], [-122.693759418108, 49.0260361293988], [-122.693808774025, 49.0267773632343], [-122.693846980877, 49.0267913178182], [-122.693873286698, 49.0268034974728], [-122.69389556413, 49.0268105227557], [-122.693917299431, 49.0268194032867], [-122.69394332995, 49.0268340982624], [-122.693967819221, 49.0268543052422], [-122.693994838384, 49.026859250706], [-122.694025591216, 49.0268736955141], [-122.694068828764, 49.0268953500969], [-122.694104223469, 49.0269061540798], [-122.694148860964, 49.0269212563556], [-122.694186875502, 49.0269422952454], [-122.69421035813, 49.0269625013047], [-122.694227148456, 49.0269845553123], [-122.694262900415, 49.0269960087751], [-122.694287960192, 49.0270079754361], [-122.694321312019, 49.0270307254841], [-122.694345686519, 49.0270493875357], [-122.694367789293, 49.0270733446678], [-122.694376012953, 49.0270865854711], [-122.694384542098, 49.0270903745144], [-122.694417010746, 49.0271088133067], [-122.694444709631, 49.0271321312632], [-122.69446789017, 49.0271402670834], [-122.694524720849, 49.027160441726], [-122.694574388734, 49.0271842414972], [-122.694607928824, 49.0272048806943], [-122.69462340883, 49.027218454629], [-122.694646225027, 49.0272492574414], [-122.694654163563, 49.0272699889989], [-122.694656651629, 49.0273006534593], [-122.694647172548, 49.0273367429799], [-122.694633308198, 49.0273785825717], [-122.695019158182, 49.0276666181158], [-122.695044625117, 49.0276988959328], [-122.695054508063, 49.0277274119866], [-122.695068280498, 49.0278042203536], [-122.695068382109, 49.0278218429851], [-122.695064118815, 49.0278421104804], [-122.695048112371, 49.0278725461444], [-122.695028686605, 49.0278939304016], [-122.695007651948, 49.0279146681179], [-122.694981176955, 49.0279407663161], [-122.69495391446, 49.0279663397826], [-122.694923492926, 49.0279859345174], [-122.694898650754, 49.0279989052496], [-122.694886312488, 49.0280135462353], [-122.694859949323, 49.028032746882], [-122.694821563632, 49.0280567805442], [-122.694783824295, 49.0280753303918], [-122.694769868797, 49.0280906822369], [-122.694748128724, 49.0281061709114], [-122.694735846402, 49.0281235071078], [-122.694716299262, 49.0281423326445], [-122.694688520942, 49.0281605040106], [-122.694629570101, 49.0282080579407], [-122.694608208909, 49.0282215271817], [-122.694576236764, 49.0282358247152], [-122.694536660226, 49.0282467422579], [-122.694456747616, 49.0283050353189], [-122.694458170494, 49.0283126007796], [-122.69446027295, 49.028351717374], [-122.694452764687, 49.0283788848666], [-122.694437225428, 49.0284042013905], [-122.694411497282, 49.0284291023216], [-122.694348129234, 49.0284720962383], [-122.694303041, 49.0284988484319], [-122.694235287742, 49.0285390474339], [-122.693998305602, 49.0286796554285], [-122.693981865569, 49.02868940893], [-122.693668590603, 49.0288752803109], [-122.693551277632, 49.0289434153776], [-122.693508086145, 49.0289676850154], [-122.693498585488, 49.0289730247513], [-122.693465414064, 49.0289904591506], [-122.693426032604, 49.0290039999436], [-122.693359611075, 49.0290153684041], [-122.693308729964, 49.029025391009], [-122.693283766117, 49.0290326326772], [-122.693247116858, 49.0290532287152], [-122.693241255861, 49.0290617688402], [-122.693240807494, 49.0290870821363], [-122.693238859799, 49.0291259702886], [-122.69322248291, 49.0291598940979], [-122.693202290705, 49.0291822403332], [-122.693170110674, 49.0292050404532], [-122.693134080691, 49.0292265673457], [-122.69311403099, 49.0292608762787], [-122.693096150001, 49.0292799857316], [-122.693074515178, 49.0293031035273], [-122.693037767113, 49.0293575046584], [-122.693001791081, 49.0294276015356], [-122.692963057922, 49.0294595398735], [-122.692892779755, 49.0294875009617], [-122.692810327264, 49.0294988561271], [-122.692730322281, 49.0295068489025], [-122.692713789342, 49.0295085014473], [-122.692598501856, 49.0295067649995], [-122.692590487303, 49.0295606281256], [-122.692558527296, 49.0296451033148], [-122.69254032915, 49.0296956460199], [-122.692525784885, 49.0297457513767], [-122.69249663303, 49.0297936237832], [-122.692460364006, 49.0298214125552], [-122.692414084623, 49.0298570592673], [-122.692420149234, 49.0299027433344], [-122.692443684207, 49.0299542941089], [-122.692446587066, 49.0299654033007], [-122.692452117445, 49.0299865720646], [-122.69243906138, 49.0300406772143], [-122.692426160087, 49.0300845385992], [-122.692372456938, 49.0301371482765], [-122.692301568849, 49.0301826127899], [-122.692237448211, 49.0302087871789], [-122.692171500404, 49.030232206707], [-122.692125761045, 49.0302689225181], [-122.692099880313, 49.0303106694564], [-122.692039357501, 49.0304126186695], [-122.691989356668, 49.0304838733048], [-122.69193634158, 49.0305299223317], [-122.691874773317, 49.0305682383787], [-122.691805723344, 49.0306107353508], [-122.691792637163, 49.0306412269257], [-122.691764860743, 49.0306697650009], [-122.691727386356, 49.0306940825205], [-122.691700228356, 49.0307327836469], [-122.691677946708, 49.0307505605668], [-122.691567174424, 49.0308139856924], [-122.691521658448, 49.0308332198347], [-122.691468349434, 49.0308441499875], [-122.691420969264, 49.0308458260174], [-122.69141923729, 49.0309009112588], [-122.69141376043, 49.0309167108548], [-122.691408382879, 49.0309166739857], [-122.691406568188, 49.0307683597932], [-122.691415412859, 49.0307601272951], [-122.691349165099, 49.0307734713919], [-122.691278437648, 49.0307825053751], [-122.691263982909, 49.030783836732], [-122.691255179874, 49.0307848935502], [-122.691161004987, 49.0307918083352], [-122.691162339841, 49.0309224880983], [-122.687097861212, 49.0309502487422], [-122.687025253617, 49.0309495948696], [-122.687024384725, 49.030937410689], [-122.687027421703, 49.0308674134668], [-122.687063115783, 49.0308108407655], [-122.687097020787, 49.0307725287418], [-122.687171527625, 49.03073467401], [-122.687240418328, 49.0307140971263], [-122.687313038936, 49.0306894804946], [-122.68733001359, 49.0306632755646], [-122.687357126061, 49.030626699199], [-122.687395774161, 49.0305992297246], [-122.687471373165, 49.0305592556978], [-122.68773162453, 49.0304216440716], [-122.687789090215, 49.0304001831614], [-122.68783104797, 49.0303791444448], [-122.687889062462, 49.0303423232037], [-122.687937025187, 49.0303148148706], [-122.687984040853, 49.0302996108208], [-122.688035460094, 49.0302929518712], [-122.688052730417, 49.0302837043163], [-122.688077144836, 49.0302643470373], [-122.688107191636, 49.0302307253795], [-122.688149195267, 49.0302049289043], [-122.688216837388, 49.0301847591608], [-122.688302855176, 49.0301831339419], [-122.688345783502, 49.0301917156333], [-122.688874631909, 49.0302344081298], [-122.688903256014, 49.0302022253215], [-122.689037421697, 49.0300903588749], [-122.689174394122, 49.0299852726091], [-122.68925030411, 49.0299564905629], [-122.689279032146, 49.0299213933694], [-122.689326896939, 49.0298859159013], [-122.689418667979, 49.0298504549399], [-122.689548110677, 49.0298199213914], [-122.689656782388, 49.029806811168], [-122.689812277354, 49.0298147720397], [-122.690046923489, 49.0298173518672], [-122.69010044695, 49.0298081105179], [-122.690239182253, 49.0297909829866], [-122.690293042017, 49.0297714092181], [-122.690351218075, 49.0297573046301], [-122.690470962396, 49.0297648799207], [-122.6906174526, 49.0298249917665], [-122.690701244517, 49.029815988707], [-122.690762159228, 49.0298052025284], [-122.690844116439, 49.0298021837114], [-122.690868538242, 49.0297838504584], [-122.69088797581, 49.0297554476809], [-122.690909422577, 49.0297313033958], [-122.690928797383, 49.0297094924104], [-122.690965280796, 49.0296381561485], [-122.691022365164, 49.02957318634], [-122.691091195495, 49.0295207437184], [-122.691117786116, 49.0294969837815], [-122.691131300124, 49.0294849109909], [-122.691147362483, 49.0294565207238], [-122.691145083646, 49.0292250788054], [-122.691145254187, 49.0292501274804], [-122.691144352901, 49.0291619071223], [-122.69114407328, 49.0291345903669], [-122.691143898568, 49.029117509074], [-122.691140906547, 49.0288247045152], [-122.691141503431, 49.0288615421539], [-122.691140672892, 49.0287771433059], [-122.691140906547, 49.0288247045152]]]]}, "properties": {"PLAN_AREA": "South Campbell Heights", "PLAN_TYPE": "Local Area Plan", "PLAN_YEAR": 2025, "PLAN_STATUS": "Stage 2 Approved (See Surrey 2025 OCP)", "LAND_USE": "Conservation & Recreation"}}, {"type": "Feature", "geometry": {"type": "Polygon", "coordinates": [[[-122.680216824012, 49.0309498654436], [-122.68014232324, 49.0273895028069], [-122.681411712495, 49.027388625371], [-122.681400209286, 49.0273986483036], [-122.681390020052, 49.0274092683334], [-122.681381216077, 49.0274204111625], [-122.681373858956, 49.0274319988353], [-122.68136800016, 49.027443950284], [-122.681363680678, 49.0274561818958], [-122.68136082518, 49.0274699673899], [-122.681359830608, 49.0274838648035], [-122.681360704722, 49.0274977657187], [-122.681363440704, 49.0275115616904], [-122.681368017211, 49.0275251450918], [-122.681373820259, 49.02753791638], [-122.681381312436, 49.0275503016342], [-122.681390435429, 49.0275622044581], [-122.681401118234, 49.02757353221], [-122.681413277707, 49.0275841967243], [-122.681426819209, 49.0275941149971], [-122.681441637344, 49.0276032098328], [-122.681457616781, 49.0276114104445], [-122.68147463315, 49.0276186530054], [-122.68149255401, 49.0276248811453], [-122.681511239879, 49.0276300463894], [-122.681530545321, 49.0276341085356], [-122.68155032008, 49.0276370359673], [-122.681570410243, 49.0276388058997], [-122.681590659446, 49.0276394045572], [-122.68161066636, 49.0276388309412], [-122.681630520806, 49.0276371113005], [-122.681650071268, 49.0276342587583], [-122.681669168552, 49.0276302950831], [-122.681687666919, 49.0276252505231], [-122.681705425204, 49.0276191635746], [-122.681722307888, 49.0276120806891], [-122.681738186135, 49.0276040559181], [-122.681752938774, 49.027595150501], [-122.681766453223, 49.0275854323977], [-122.681778626351, 49.0275749757696], [-122.682817616097, 49.0275734553771], [-122.682880082347, 49.0309492519898], [-122.680216824012, 49.0309498654436]]]}, "properties": {"PLAN_AREA": "South Campbell Heights", "PLAN_TYPE": "Local Area Plan", "PLAN_YEAR": 2025, "PLAN_STATUS": "Stage 2 Approved (See Surrey 2025 OCP)", "LAND_USE": "Business Employment"}}, {"type": "Feature", "geometry": {"type": "Polygon", "coordinates": [[[-122.685834434317, 49.036515776365], [-122.69114415609, 49.0365512433405], [-122.691144188791, 49.0365554641532], [-122.691157542553, 49.038290688133], [-122.685850267382, 49.0382985737484], [-122.685834434317, 49.036515776365]]]}, "properties": {"PLAN_AREA": "South Campbell Heights", "PLAN_TYPE": "Local Area Plan", "PLAN_YEAR": 2025, "PLAN_STATUS": "Stage 2 Approved (See Surrey 2025 OCP)", "LAND_USE": "Conservation & Recreation"}}, {"type": "Feature", "geometry": {"type": "Polygon", "coordinates": [[[-122.685834434317, 49.036515776365], [-122.685828363103, 49.0358321740856], [-122.685828430217, 49.035832162574], [-122.691138837321, 49.0358600961157], [-122.69114415609, 49.0365512433405], [-122.685834434317, 49.036515776365]]]}, "properties": {"PLAN_AREA": "South Campbell Heights", "PLAN_TYPE": "Local Area Plan", "PLAN_YEAR": 2025, "PLAN_STATUS": "Stage 2 Approved (See Surrey 2025 OCP)", "LAND_USE": "Conservation & Recreation"}}, {"type": "Feature", "geometry": {"type": "Polygon", "coordinates": [[[-122.680437535118, 49.0329478109659], [-122.680433974075, 49.0329486466896], [-122.680418493696, 49.0312622273768], [-122.680760281497, 49.0312621892851], [-122.680783911249, 49.0329461995805], [-122.680437535118, 49.0329478109659]]]}, "properties": {"PLAN_AREA": "South Campbell Heights", "PLAN_TYPE": "Local Area Plan", "PLAN_YEAR": 2025, "PLAN_STATUS": "Stage 2 Approved (See Surrey 2025 OCP)", "LAND_USE": "Buffer"}}, {"type": "Feature", "geometry": {"type": "Polygon", "coordinates": [[[-122.689381172535, 49.0312785600512], [-122.689599150115, 49.0312778754964], [-122.689616107665, 49.0336099751121], [-122.68939811989, 49.0336106605775], [-122.687187590267, 49.0336190754832], [-122.68610422658, 49.0347424984968], [-122.685822744515, 49.0347386776126], [-122.687030417417, 49.0334617330808], [-122.689397051479, 49.0334636302982], [-122.689381172535, 49.0312785600512]]]}, "properties": {"PLAN_AREA": "South Campbell Heights", "PLAN_TYPE": "Local Area Plan", "PLAN_YEAR": 2025, "PLAN_STATUS": "Stage 2 Approved (See Surrey 2025 OCP)", "LAND_USE": "Buffer"}}, {"type": "Feature", "geometry": {"type": "Polygon", "coordinates": [[[-122.691138831015, 49.0358593467671], [-122.685829701751, 49.0358314319964], [-122.685824086549, 49.0347386965588], [-122.68610422658, 49.0347424984968], [-122.687187590267, 49.0336190754832], [-122.689616107665, 49.0336099751121], [-122.689615162658, 49.0334799504171], [-122.689615048439, 49.0334642240318], [-122.689615010705, 49.0334590739591], [-122.691121756473, 49.0334656579644], [-122.691121215619, 49.0336109153855], [-122.691120515533, 49.0337989067897], [-122.69113067635, 49.0346285254065], [-122.6911278893, 49.0346285476325], [-122.690029291469, 49.0346372054006], [-122.690016410306, 49.0346266203707], [-122.690002160174, 49.0346168231235], [-122.689986652019, 49.0346078899363], [-122.689970006581, 49.0345998903589], [-122.689952353455, 49.0345928866728], [-122.689933830081, 49.0345869334054], [-122.689914580674, 49.0345820769064], [-122.689894755102, 49.0345783549862], [-122.689874507718, 49.0345757966221], [-122.689853996159, 49.0345744217324], [-122.689833380119, 49.0345742410214], [-122.689812820105, 49.0345752558959], [-122.689793193664, 49.0345773458347], [-122.689773911293, 49.0345805325803], [-122.689755114503, 49.0345847927455], [-122.689736941243, 49.0345900950654], [-122.689719524885, 49.0345964006267], [-122.689702993244, 49.0346036631537], [-122.689687467647, 49.0346118293473], [-122.689673062035, 49.0346208392765], [-122.689659882129, 49.0346306268184], [-122.689648024656, 49.0346411201429], [-122.689637576639, 49.0346522422405], [-122.689628614756, 49.0346639114868], [-122.689621204777, 49.0346760422422], [-122.689615401087, 49.0346885454798], [-122.689611246278, 49.034701329439], [-122.689608770845, 49.0347143002993], [-122.689607992955, 49.0347273628679], [-122.689608989409, 49.0347405279653], [-122.689611694884, 49.0347535887741], [-122.689616089548, 49.034766449562], [-122.689622141194, 49.0347790160627], [-122.689629805463, 49.0347911961667], [-122.689639026181, 49.0348029005969], [-122.689649735763, 49.0348140435625], [-122.68966185571, 49.0348245433883], [-122.689675297188, 49.0348343231127], [-122.689689961674, 49.0348433110526], [-122.689705741681, 49.0348514413284], [-122.689722521545, 49.0348586543468], [-122.689740178274, 49.034864897238], [-122.689758582449, 49.0348701242428], [-122.68977759917, 49.0348742970484], [-122.689797089049, 49.034877385069], [-122.689817148496, 49.034879346685], [-122.689837391582, 49.034880151913], [-122.689857664399, 49.034879794631], [-122.689877812812, 49.0348782775553], [-122.689897683631, 49.0348756122203], [-122.689917125778, 49.0348718188908], [-122.689935991433, 49.0348669264075], [-122.68995413716, 49.0348609719683], [-122.689971424996, 49.0348540008449], [-122.689987723502, 49.0348460660392], [-122.69000290876, 49.0348372278797], [-122.690016865317, 49.0348275535632], [-122.690029487061, 49.0348171166439], [-122.69112831799, 49.0348165294308], [-122.691138831015, 49.0358593467671]]]}, "properties": {"PLAN_AREA": "South Campbell Heights", "PLAN_TYPE": "Local Area Plan", "PLAN_YEAR": 2025, "PLAN_STATUS": "Stage 2 Approved (See Surrey 2025 OCP)", "LAND_USE": "Business Employment"}}, {"type": "Feature", "geometry": {"type": "Polygon", "coordinates": [[[-122.697727251741, 49.038378341108], [-122.697685159782, 49.0347528045778], [-122.700018985978, 49.0347641617707], [-122.70003188708, 49.0347749487828], [-122.70004620697, 49.0347849319516], [-122.700061830337, 49.0347940308877], [-122.700078631375, 49.0348021723222], [-122.700096474794, 49.0348092906963], [-122.700114476024, 49.0348151153936], [-122.700133173748, 49.0348198983972], [-122.700152428837, 49.0348236041164], [-122.700172098013, 49.0348262049769], [-122.700192034916, 49.0348276816254], [-122.700212091193, 49.0348280230742], [-122.700232117606, 49.0348272267825], [-122.700248990114, 49.0348256614022], [-122.700265643033, 49.0348232880181], [-122.700281986981, 49.0348201193692], [-122.70030176847, 49.0348150898634], [-122.700320770898, 49.034808896479], [-122.700338836255, 49.0348015907159], [-122.700355814322, 49.0347932333239], [-122.700371563922, 49.0347838937972], [-122.700385344619, 49.0347741235341], [-122.700397779404, 49.0347636015861], [-122.700408773863, 49.0347524078438], [-122.700418244519, 49.0347406272987], [-122.700426119465, 49.0347283493976], [-122.700432338909, 49.0347156673635], [-122.70043685563, 49.034702677488], [-122.700439635335, 49.0346894783996], [-122.700440660554, 49.034675727719], [-122.700439695152, 49.0346611927154], [-122.700436633371, 49.0346467838095], [-122.700431502926, 49.0346326314158], [-122.700424350253, 49.0346188636267], [-122.700415240094, 49.0346056050537], [-122.700404951976, 49.0345936994358], [-122.700393085356, 49.034582446645], [-122.70037973538, 49.0345719369042], [-122.700365009087, 49.0345622544786], [-122.70035003777, 49.0345539874551], [-122.700334063365, 49.0345465763698], [-122.700317198749, 49.03454007359], [-122.700299563089, 49.0345345250651], [-122.700281281001, 49.0345299700014], [-122.700262481667, 49.0345264405854], [-122.700243297924, 49.0345239617561], [-122.7002219126, 49.0345224691979], [-122.700200409023, 49.0345222817335], [-122.70017897103, 49.0345234009655], [-122.700157781902, 49.0345258173254], [-122.700137022788, 49.0345295101551], [-122.700116871164, 49.0345344478837], [-122.70009749931, 49.0345405882975], [-122.700079072842, 49.0345478789005], [-122.700068115399, 49.034552988073], [-122.700057624833, 49.0345585046504], [-122.700047636137, 49.0345644102313], [-122.700038182444, 49.0345706851737], [-122.700029295487, 49.0345773085017], [-122.700021004911, 49.0345842581216], [-122.697683070392, 49.0345729000964], [-122.697644261784, 49.0312721661663], [-122.702191581199, 49.0312806589551], [-122.702239860996, 49.0360253498865], [-122.702210722599, 49.0360233199611], [-122.702161093487, 49.0360264662752], [-122.702087804358, 49.0360447360265], [-122.701983115122, 49.0360362464633], [-122.701921461199, 49.0360441706564], [-122.70180747897, 49.0360783085609], [-122.701729950268, 49.0361140914143], [-122.701716359505, 49.0361242554722], [-122.701646553913, 49.0361481705758], [-122.701584222914, 49.0362031496025], [-122.701526459516, 49.0363259247807], [-122.701361304, 49.0362794851318], [-122.701271215236, 49.036284099681], [-122.701196476933, 49.0362449607384], [-122.701135779283, 49.0362334241568], [-122.701068596329, 49.0362351500154], [-122.700875503814, 49.0362958420921], [-122.700807988178, 49.0363322628777], [-122.700751720617, 49.0363830094621], [-122.700692392991, 49.036512996416], [-122.700717008559, 49.0368641459156], [-122.700770645803, 49.0369682495778], [-122.700821354771, 49.0370236201847], [-122.70088463926, 49.0370664124663], [-122.700961821955, 49.0370868723284], [-122.700985502664, 49.0371083809408], [-122.701056301059, 49.03715012752], [-122.70114944866, 49.0371750922158], [-122.701151885223, 49.0371755869854], [-122.701200013856, 49.0371853584651], [-122.701228675848, 49.0371870824615], [-122.701263730696, 49.0372037934369], [-122.701316062066, 49.0372175284033], [-122.701379951483, 49.0372233762485], [-122.701385996144, 49.0377303510268], [-122.7013502028, 49.0377377382239], [-122.7013066163, 49.0377542159576], [-122.701274120837, 49.0377745473034], [-122.701087604594, 49.0377780241997], [-122.701037925254, 49.037791531004], [-122.700991721224, 49.0378159899082], [-122.700976700756, 49.0378276326427], [-122.70092610554, 49.0378544504763], [-122.700872692937, 49.0378940688841], [-122.700821747928, 49.0379082397862], [-122.700818339797, 49.0379095847847], [-122.700766776172, 49.0379299376167], [-122.700723519113, 49.0379539317867], [-122.700681641009, 49.0379640475462], [-122.700643246543, 49.0379807543891], [-122.700501538769, 49.0380832142239], [-122.700472526722, 49.0381185149231], [-122.700437107997, 49.0381176772559], [-122.700392468148, 49.0380952901285], [-122.700330417688, 49.0380806137589], [-122.700129900315, 49.0380709039189], [-122.700072031111, 49.038081063362], [-122.700039825618, 49.0380926451179], [-122.699987337, 49.0380972268546], [-122.699979748604, 49.0380949744253], [-122.699856151837, 49.0380582848299], [-122.699785226829, 49.038046622891], [-122.699716225449, 49.0380513504533], [-122.699653015418, 49.0380715960203], [-122.699611957578, 49.0380965409319], [-122.699507656276, 49.0381842721999], [-122.699428241256, 49.0382187010483], [-122.699348513209, 49.0382421652204], [-122.699284271481, 49.0382739276295], [-122.699243699447, 49.0383126441004], [-122.699221646439, 49.0383600058949], [-122.699224637447, 49.0383983519276], [-122.697727251741, 49.038378341108]]]}, "properties": {"PLAN_AREA": "South Campbell Heights", "PLAN_TYPE": "Local Area Plan", "PLAN_YEAR": 2025, "PLAN_STATUS": "Stage 2 Approved (See Surrey 2025 OCP)", "LAND_USE": "Business Employment"}}, {"type": "Feature", "geometry": {"type": "Polygon", "coordinates": [[[-122.697327271327, 49.0322076577142], [-122.697398612907, 49.0383561297507], [-122.693515915496, 49.0383055473919], [-122.6934738227, 49.0333990319715], [-122.693221555335, 49.0333970158859], [-122.693254110536, 49.0312366086649], [-122.697316384454, 49.0312692583403], [-122.697326959808, 49.0321807547037], [-122.697327271327, 49.0322076577142]]]}, "properties": {"PLAN_AREA": "South Campbell Heights", "PLAN_TYPE": "Local Area Plan", "PLAN_YEAR": 2025, "PLAN_STATUS": "Stage 2 Approved (See Surrey 2025 OCP)", "LAND_USE": "Business Employment"}}, {"type": "Feature", "geometry": {"type": "Polygon", "coordinates": [[[-122.69787117606, 49.0302438381354], [-122.697800651439, 49.0303382879451], [-122.697787309395, 49.0303499787524], [-122.697748980579, 49.0303802821721], [-122.697707654681, 49.0304088316826], [-122.697663516847, 49.0304354993758], [-122.697608345886, 49.0304719557659], [-122.697553927315, 49.0305088979081], [-122.697500271026, 49.0305463190886], [-122.697467050177, 49.0305700076438], [-122.697437157747, 49.0305955414833], [-122.697410829671, 49.0306227190785], [-122.697388273752, 49.0306513259271], [-122.697369668022, 49.0306811362458], [-122.697353742493, 49.030714844602], [-122.697343005376, 49.0307494288041], [-122.697337563599, 49.0307845444693], [-122.69733963218, 49.0309557053122], [-122.69615508906, 49.0309489564849], [-122.696079017792, 49.0283768068868], [-122.694452764687, 49.0283788848666], [-122.69446027295, 49.028351717374], [-122.694456747616, 49.0283050353189], [-122.694536660226, 49.0282467422579], [-122.694576236764, 49.0282358247152], [-122.694608208909, 49.0282215271817], [-122.694629570101, 49.0282080579407], [-122.694688520942, 49.0281605040106], [-122.694716299262, 49.0281423326445], [-122.694735846402, 49.0281235071078], [-122.694748128724, 49.0281061709114], [-122.694769868797, 49.0280906822369], [-122.694783824295, 49.0280753303918], [-122.694821563632, 49.0280567805442], [-122.694859949323, 49.028032746882], [-122.694886312488, 49.0280135462353], [-122.694898650754, 49.0279989052496], [-122.69495391446, 49.0279663397826], [-122.695048112371, 49.0278725461444], [-122.695064118815, 49.0278421104804], [-122.69506807356, 49.0278233102502], [-122.695068280498, 49.0278042203536], [-122.695054508063, 49.0277274119866], [-122.695044625117, 49.0276988959328], [-122.695019158182, 49.0276666181158], [-122.694633308198, 49.0273785825717], [-122.694656651629, 49.0273006534593], [-122.694654163563, 49.0272699889989], [-122.694646225027, 49.0272492574414], [-122.69462340883, 49.027218454629], [-122.694607928824, 49.0272048806943], [-122.694574388734, 49.0271842414972], [-122.694524720849, 49.027160441726], [-122.694444709631, 49.0271321312632], [-122.694417010746, 49.0271088133067], [-122.694384542098, 49.0270903745144], [-122.694376012953, 49.0270865854711], [-122.694367789293, 49.0270733446678], [-122.694345686519, 49.0270493875357], [-122.694287960192, 49.0270079754361], [-122.694262900415, 49.0269960087751], [-122.694227148456, 49.0269845553123], [-122.69421035813, 49.0269625013047], [-122.694186875502, 49.0269422952454], [-122.694148860964, 49.0269212563556], [-122.694068828764, 49.0268953500969], [-122.693994838384, 49.026859250706], [-122.693967819221, 49.0268543052422], [-122.69394332995, 49.0268340982624], [-122.693917299431, 49.0268194032867], [-122.69389556413, 49.0268105227557], [-122.693873286698, 49.0268034974728], [-122.693846980877, 49.0267913178182], [-122.693808774025, 49.0267773632343], [-122.693760198032, 49.0260300756346], [-122.693764495737, 49.0259966819013], [-122.693764629937, 49.0259743668872], [-122.693756784358, 49.0259474969167], [-122.693750109644, 49.0259353504433], [-122.693772360154, 49.0259123672772], [-122.693814007546, 49.0258902757635], [-122.693844670446, 49.0258675442917], [-122.693859027707, 49.0258519795235], [-122.693918205636, 49.0257461000366], [-122.693941781906, 49.0257313000478], [-122.69396710953, 49.0257273560844], [-122.694010260781, 49.0257156233164], [-122.694043646174, 49.025700385144], [-122.694066305102, 49.0256854909423], [-122.694085542371, 49.0256680050303], [-122.694090537447, 49.0256622835806], [-122.694113560967, 49.0256508356489], [-122.694122242668, 49.0256493312096], [-122.694224210089, 49.0256115815668], [-122.694255984598, 49.0256031613232], [-122.694288691942, 49.0255896151536], [-122.694343743463, 49.0255555876203], [-122.69437317388, 49.025546186013], [-122.694404709895, 49.0255311317452], [-122.694429582621, 49.0255138846896], [-122.694449724107, 49.0254936799434], [-122.694464492983, 49.0254704897236], [-122.694472003974, 49.0254481654523], [-122.694475061223, 49.0254255973024], [-122.694499583602, 49.0254088116774], [-122.694520125355, 49.0253884577518], [-122.694533668398, 49.0253679719518], [-122.694543694302, 49.0253381457096], [-122.694554357258, 49.0252851368054], [-122.694589574276, 49.0252771969508], [-122.694626688798, 49.0252629561948], [-122.694655277788, 49.025246168704], [-122.694680931174, 49.0252235838739], [-122.694694334115, 49.0252058575325], [-122.694702866447, 49.0251889530948], [-122.694706446186, 49.0251779996336], [-122.694761269969, 49.0251309888535], [-122.694779612467, 49.0251058524024], [-122.694787891982, 49.025085993136], [-122.69479153638, 49.025064462822], [-122.694789160011, 49.0250394703708], [-122.694780351887, 49.0250144744012], [-122.694767503514, 49.0249851534564], [-122.694751804215, 49.0249639291008], [-122.694724598031, 49.0249391750157], [-122.69470804284, 49.0249230335999], [-122.694701803767, 49.0249150128126], [-122.694703144839, 49.0248690839494], [-122.694751220353, 49.024819645398], [-122.694766040959, 49.0247883889232], [-122.694780989273, 49.024722828079], [-122.694777759716, 49.0246984504674], [-122.694703521305, 49.0244370300645], [-122.694701035464, 49.0244315100867], [-122.694691510468, 49.0244103578285], [-122.694662120227, 49.0243661377737], [-122.694655952552, 49.024359874012], [-122.694656224791, 49.0243406412474], [-122.69465194258, 49.0243210977774], [-122.694633601154, 49.0242886426057], [-122.694582571376, 49.0242205233341], [-122.694560033421, 49.0241990226756], [-122.694539734359, 49.0241856185789], [-122.694541063399, 49.0241313957396], [-122.69455510391, 49.0240762809], [-122.695572198421, 49.024081333556], [-122.695572762696, 49.0239015949205], [-122.695579194415, 49.0237313747074], [-122.695415091206, 49.023735846973], [-122.695625484144, 49.0236182629315], [-122.695854369982, 49.023467345484], [-122.695945141112, 49.0233362318727], [-122.695964685416, 49.023175577908], [-122.695948987066, 49.0230648457084], [-122.695744620331, 49.0227434619267], [-122.695624155771, 49.0226327799342], [-122.695538347746, 49.0225770795053], [-122.695517752153, 49.0225473261922], [-122.695694838565, 49.0225541154282], [-122.695690810708, 49.022267352982], [-122.695685353468, 49.0218787538586], [-122.695603213166, 49.0218749524637], [-122.695896163871, 49.0217294231189], [-122.696103325676, 49.0216534603962], [-122.697358430317, 49.0218850430141], [-122.697647914115, 49.0218905623468], [-122.697805182543, 49.0218692247486], [-122.697805250963, 49.021990533292], [-122.697849768529, 49.0221062451227], [-122.697927056842, 49.0223927018377], [-122.698000203879, 49.0225476625776], [-122.698189515902, 49.0227313766316], [-122.698213544785, 49.0227835644721], [-122.698411645786, 49.02293484412], [-122.698499813343, 49.0231018933864], [-122.698648963237, 49.0232044423931], [-122.698646162014, 49.0236683695261], [-122.697699097036, 49.0236635328343], [-122.69769938593, 49.0237212979192], [-122.6976996259, 49.0237695257432], [-122.696470848104, 49.023766052791], [-122.696458257766, 49.0237555758377], [-122.696444325617, 49.0237458611749], [-122.696429157893, 49.0237369828801], [-122.696412870255, 49.023729008653], [-122.696395586901, 49.0237219992997], [-122.696377439623, 49.0237160082686], [-122.696358566798, 49.023711081243], [-122.696339112339, 49.0237072557932], [-122.696319224592, 49.0237045610892], [-122.696299055206, 49.023703017679], [-122.69627875798, 49.0237026373316], [-122.696258487685, 49.0237034229472], [-122.696238398888, 49.0237053685352], [-122.696219079948, 49.0237083781705], [-122.696200221794, 49.0237124605999], [-122.696181961896, 49.0237175860638], [-122.696164433362, 49.0237237171992], [-122.69614776397, 49.0237308093122], [-122.696132075235, 49.0237388107036], [-122.696117481524, 49.0237476630457], [-122.69610408922, 49.0237573018078], [-122.696091995951, 49.0237676567264], [-122.696081289872, 49.0237786523172], [-122.696072049029, 49.0237902084257], [-122.696064340787, 49.0238022408113], [-122.696058221336, 49.0238146617615], [-122.696053735288, 49.0238273807311], [-122.696050935408, 49.0238401735314], [-122.696049788114, 49.0238530761256], [-122.696050301603, 49.0238659963497], [-122.696052472206, 49.0238788419134], [-122.696056284422, 49.0238915210599], [-122.696061711019, 49.0239039432211], [-122.696068713238, 49.0239160196643], [-122.69607724106, 49.0239276641263], [-122.696087233573, 49.0239387934295], [-122.696098619399, 49.0239493280762], [-122.69611131721, 49.0239591928163], [-122.696125236304, 49.0239683171848], [-122.696140277256, 49.0239766360052], [-122.696156579264, 49.023984194203], [-122.696173806217, 49.0239908058348], [-122.696191831364, 49.023996422254], [-122.696210522081, 49.0240010021368], [-122.696229740848, 49.0240045117857], [-122.696249346259, 49.0240069253777], [-122.696269194063, 49.0240082251543], [-122.696289138225, 49.024008401552], [-122.696309032002, 49.0240074532731], [-122.696328729021, 49.0240053872946], [-122.696348084357, 49.0240022188176], [-122.6963669556, 49.0239979711545], [-122.6963852039, 49.0239926755587], [-122.696402694992, 49.0239863709934], [-122.696419300181, 49.0239791038458], [-122.696447480477, 49.0239631721133], [-122.696469823695, 49.0239459620387], [-122.697845203319, 49.0239493430926], [-122.697893797098, 49.0300532412865], [-122.697895726895, 49.030117157552], [-122.697888162494, 49.0301808926123], [-122.69787117606, 49.0302438381354]]]}, "properties": {"PLAN_AREA": "South Campbell Heights", "PLAN_TYPE": "Local Area Plan", "PLAN_YEAR": 2025, "PLAN_STATUS": "Stage 2 Approved (See Surrey 2025 OCP)", "LAND_USE": "Business Employment"}}, {"type": "Feature", "geometry": {"type": "Polygon", "coordinates": [[[-122.69864412181, 49.0239013681508], [-122.698118365069, 49.0239045241143], [-122.698121434695, 49.0238950703259], [-122.698123259, 49.0238854781432], [-122.698123824518, 49.0238758183793], [-122.698123127074, 49.0238661623462], [-122.698121171818, 49.023856581328], [-122.698117973186, 49.0238471460554], [-122.69811355479, 49.0238379261828], [-122.698107949251, 49.0238289897746], [-122.69810119795, 49.0238204028025], [-122.69809335073, 49.0238122286583], [-122.69808446552, 49.0238045276865], [-122.698074607915, 49.0237973567382], [-122.698063850688, 49.0237907687516], [-122.698052273252, 49.0237848123615], [-122.698039961077, 49.0237795315399], [-122.698027005054, 49.0237749652715], [-122.6976996259, 49.0237695257432], [-122.697699097036, 49.0236635328343], [-122.698645528722, 49.0236683660731], [-122.69864412181, 49.0239013681508]]]}, "properties": {"PLAN_AREA": "South Campbell Heights", "PLAN_TYPE": "Local Area Plan", "PLAN_YEAR": 2025, "PLAN_STATUS": "Stage 2 Approved (See Surrey 2025 OCP)", "LAND_USE": "Business Employment"}}, {"type": "Feature", "geometry": {"type": "Polygon", "coordinates": [[[-122.686825160132, 49.0336786903328], [-122.685824083133, 49.0347379355233], [-122.685819768068, 49.0343551302915], [-122.685893354235, 49.0343002317676], [-122.685971215064, 49.0342482539999], [-122.686039367334, 49.0341704243496], [-122.686074265551, 49.0341239131769], [-122.686090200941, 49.0340924809824], [-122.68609396421, 49.0340682004481], [-122.686135748594, 49.0340411825236], [-122.68616674385, 49.0340017708153], [-122.686176530316, 49.0339817219877], [-122.686216405554, 49.0339423829899], [-122.686238431548, 49.0339083631135], [-122.686275967003, 49.0338992950651], [-122.686392084048, 49.0338951371745], [-122.686456757814, 49.0338758023916], [-122.686521417138, 49.0338361132284], [-122.68660778635, 49.0338146198819], [-122.686670988836, 49.0337844503016], [-122.686710631642, 49.0337565474849], [-122.686787774376, 49.0337099375759], [-122.686825160132, 49.0336786903328]]]}, "properties": {"PLAN_AREA": "South Campbell Heights", "PLAN_TYPE": "Local Area Plan", "PLAN_YEAR": 2025, "PLAN_STATUS": "Stage 2 Approved (See Surrey 2025 OCP)", "LAND_USE": "Business Employment"}}, {"type": "Feature", "geometry": {"type": "Polygon", "coordinates": [[[-122.682880082347, 49.0309492519898], [-122.682817616097, 49.0275734553771], [-122.685660395131, 49.0275734888637], [-122.685720131867, 49.0309286045161], [-122.682880082347, 49.0309492519898]]]}, "properties": {"PLAN_AREA": "South Campbell Heights", "PLAN_TYPE": "Local Area Plan", "PLAN_YEAR": 2025, "PLAN_STATUS": "Stage 2 Approved (See Surrey 2025 OCP)", "LAND_USE": "Business Employment"}}, {"type": "Feature", "geometry": {"type": "Polygon", "coordinates": [[[-122.689599150115, 49.0312778754964], [-122.691103537323, 49.031272720498], [-122.691121756473, 49.0334656579644], [-122.689615010705, 49.0334590739591], [-122.689599150115, 49.0312778754964]]]}, "properties": {"PLAN_AREA": "South Campbell Heights", "PLAN_TYPE": "Local Area Plan", "PLAN_YEAR": 2025, "PLAN_STATUS": "Stage 2 Approved (See Surrey 2025 OCP)", "LAND_USE": "Business Employment"}}, {"type": "Feature", "geometry": {"type": "Polygon", "coordinates": [[[-122.69776429725, 49.0306244763814], [-122.697810152531, 49.0305927362973], [-122.697857546943, 49.0305619893427], [-122.697906430765, 49.0305322677722], [-122.697909292046, 49.0309596582604], [-122.697613304396, 49.0309608314915], [-122.69761121595, 49.0307880531958], [-122.697613034688, 49.0307786585795], [-122.697615541906, 49.0307693327522], [-122.697618731742, 49.0307600975163], [-122.697624342291, 49.030747336278], [-122.697631255383, 49.0307348544505], [-122.697639439221, 49.030722709446], [-122.697679478607, 49.0306891060306], [-122.697721111794, 49.0306563507851], [-122.69776429725, 49.0306244763814]]]}, "properties": {"PLAN_AREA": "South Campbell Heights", "PLAN_TYPE": "Local Area Plan", "PLAN_YEAR": 2025, "PLAN_STATUS": "Stage 2 Approved (See Surrey 2025 OCP)", "LAND_USE": "Business Employment"}}, {"type": "Feature", "geometry": {"type": "Polygon", "coordinates": [[[-122.695951752771, 49.0309480197201], [-122.695900688858, 49.0285094493301], [-122.694303041, 49.0284988484319], [-122.694411497282, 49.0284291023216], [-122.694452764687, 49.0283788848666], [-122.696079017792, 49.0283768068868], [-122.69615508906, 49.0309489564849], [-122.695951752771, 49.0309480197201]]]}, "properties": {"PLAN_AREA": "South Campbell Heights", "PLAN_TYPE": "Local Area Plan", "PLAN_YEAR": 2025, "PLAN_STATUS": "Stage 2 Approved (See Surrey 2025 OCP)", "LAND_USE": "Buffer"}}]}